District,City,Address,outlet_name,store_location
Ampara,Ampara,"Senevirathne Hotel, Ampara Road, Mahaoya",Senevirathne Hotel,POINT (79.87558799999999 7.283174)
Ampara,Ampara,"WIKRAMA COMMUNICATION, GONAGOLLA,GALAPITAGALA",WIKRAMA COMMUNICATION,POINT (80.99021499999999 7.333009)
Ampara,Ampara,"Global Communication, Batticaloa Road, Kalmunai, Main Street",Global Communication,POINT (79.8570663 6.8961749)
Ampara,Ampara,"House Of Power, P M C Road, Sainthamaruthu",House Of Power,POINT (81.8342923 7.394248500000001)
Ampara,Ampara,"YASASA CELLULER, KEKIRIHENA, MAHAOYA",YASASA CELLULER,POINT (81.3263838 7.5017075)
Ampara,Addalachenai,"Sasa Multi Com, Main Street, Addalaichenai",Sasa Multi Com,POINT (81.8542195 7.2558857)
Ampara,Dehiattakandiya,"Isodha Cellular, No.25 New Town Dipot Road, Dehiattakandiya",Isodha Cellular,POINT (81.0472262 7.6703416)
Ampara,Hingurana,"Nanayakkara Book Shop, No.6 Main Street, Hingurana",Nanayakkara Book Shop,POINT (81.672674 7.2283542)
Ampara,Kalmunai,"SIVA TRADERS, AMMAN KOVIL ROAD, KALMUNAI, KALMUNAI",SIVA TRADERS,POINT (81.82838319999999 7.412533)
Ampara,Kalmunai,"Esential, Main Street, Kalmunai, Bus stant",Esential,POINT (81.82358549999999 7.4168639)
Ampara,Kalmunai,"House Of Power, P M C Road, Sainthamaruthu, Kalmunai",House Of Power,POINT (81.8342923 7.394248500000001)
Ampara,Marthamunai,"Ajinas Phone Shop, Main Street, Maruthamunai",Ajinas Phone Shop,POINT (81.81322179999999 7.4368379)
Ampara,Marthamunai,"JISNA SATELLITE SYSTEM, MAIN STREET,MARTHAMUNAI",JISNA SATELLITE SYSTEM,POINT (79.8533577 6.921549400000001)
Ampara,Ninthavur,"Mega Communication, Main Street, Nintavur, 338,Hijra Road",Mega Communication,POINT (79.8570493 6.9366021)
Ampara,Pothuvil,"Business Baith, Nasjidhul Falah Road, Pottuvil",Business Baith,POINT (81.8314506 6.8693312)
Ampara,Pothuvil,"BANU STORES, PUTTLAM RD, LAHUGALA, Main Street,Pottuvil",BANU STORES,POINT (81.8298502 6.874721699999999)
Ampara,Pothuvil,"Bark Home System, Main Street, Arungambi, Pothuwil",Bark Home System,POINT (79.85176249999999 6.937959)
Ampara,Sammanthurai,"NIYAS STORES, 471/B,OLD MARKET ROAD,SAINTHAMARTHU-03",NIYAS STORES,POINT (81.8307118 7.407258599999999)
Ampara,Sammanthurai,"Top World, Osman Road, Sainthamaruthu 6, 256 PM Lean",Top World,POINT (81.83492769999999 7.3952132)
Ampara,Sammanthurai,"NIYAS BOOKING CENTER, 144,AMPARA ROAD,SAMMANTHURAI, AMPARA",NIYAS BOOKING CENTER,POINT (81.80437550000001 7.3643753)
Ampara,Sammanthurai,"Hijra Communication, Hijra Junction, Sammanthurai, 118 Bloak-J-East",Hijra Communication,POINT (81.8036292 7.362093099999999)
Ampara,Sammanthurai,"Star Communication, No.20 ,Ampara Road, Sammanthurai",Star Communication,POINT (81.80388339999999 7.363205)
Ampara,Sammanthurai,"Nusky Mobile, No.162 Police Road, Sammanthurai",Nusky Mobile,POINT (81.82534969999999 7.4150105)
Ampara,Sammanthurai,"Millenium Mark Communication, Ampara Road, Sammanthurai",Millenium Mark Communication,POINT (81.8057147 7.3699233)
Anuradhapura,Anuradhapura,"Helana Communication, Bank Side, Main Street",Helana Communication,POINT (80.4111635 8.335324099999999)
Anuradhapura,Anuradhapura,"Siri sanda Stores, 205,Bandaranayaka Mw, Anuradhapura",Siri sanda Stores,POINT (80.39195479999999 8.371489500000001)
Anuradhapura,Anuradhapura,"Phone 4 U, Main Street Bank Side, Anuradhapura",Phone 4 U,POINT (80.41138719999999 8.336106299999999)
Anuradhapura,Anuradhapura,"Univesal cellular ( Pvt ) ltd, Maithreepala senanayaka M.W  Anuradhapura, Anuradhapura",Univesal cellular ( Pvt ) ltd,POINT (80.4010438 8.321009799999999)
Anuradhapura,Anuradhapura,"SANDAMALEE COMMUNICATION, SRAWASTHIPURA, ANURADHAPURA",SANDAMALEE COMMUNICATION,POINT (79.84756820000001 7.3126216)
Anuradhapura,Anuradhapura,"NALIN STORSE, AKKARA 111,PANDULAGAMA, ANURADHAPURA",NALIN STORSE,POINT (80.36110909999999 8.327515999999999)
Anuradhapura,Anuradhapura,"CHANCE SNACKS & GROCERIES,  512/A FREEMAN MAWATHA, ANURADHAPURA",CHANCE SNACKS & GROCERIES,POINT (80.4159129 8.3158954)
Anuradhapura,Anuradhapura,"IRU CELLULAR, 561/2, NEW BUS STAND, ANURADHAPURA",IRU CELLULAR,POINT (80.40365079999999 8.311351699999999)
Anuradhapura,Anuradhapura,"NAWAS COMMUNICATION, KOONWEWA, MAHAPOTHANA",NAWAS COMMUNICATION,POINT (80.7480741 8.4091211)
Anuradhapura,Anuradhapura,"DILKY PHONE HOUSE., ABEYPURA, PADAVIPARAKRAMAPURA",DILKY PHONE HOUSE.,POINT (80.77570200000001 8.903964)
Anuradhapura,Eppawala,"Nikini COMMUNICATION, 34 KEKIRAWA RD,EPPAWALA",Nikini COMMUNICATION,POINT (80.3532266 8.232377399999999)
Anuradhapura,Habarana,"Kalyani Communication, Bazaar, Habarana",Kalyani Communication,POINT (85.8620767 20.2894699)
Anuradhapura,Habarana,"Quick Communication, Dambulla Road, Habarana",Quick Communication,POINT (80.7549351 8.039058899999999)
Anuradhapura,Kahatagasdigiliya,"SEENA COMMUNICATION, TRINCOMALEE ROAD, KAHATAGASDIGILIYA",SEENA COMMUNICATION,POINT (81.2127399 8.653949299999999)
Anuradhapura,Kebithigollewa,"Nanda Trade Centre, Main Street, Kebithigollewa",Nanda Trade Centre,POINT (79.8533577 6.921549400000001)
Anuradhapura,Kebithigollewa,"DATA COMM, PADAVIYA RD, KEBITHIGOLLEWA",DATA COMM,POINT (80.7589021 8.8354122)
Anuradhapura,Kebithigollewa,"Madusanka Book shop, Wahalkada, Kebithigollawa",Madusanka Book shop,POINT (80.34985229999999 7.2536844)
Anuradhapura,Kekirawa,"UNION CELLULER, THALAWA RD, KEKIRAWA",UNION CELLULER,POINT (80.59553679999999 8.040666399999999)
Anuradhapura,Kekirawa,"JIFERIYA STORES, 06 THALAWA RD,KEKIRAWA",JIFERIYA STORES,POINT (80.5959713 8.0409738)
Anuradhapura,Kekirawa,"Hameediya Stores, No.44 Main Street, Kekirawa",Hameediya Stores,POINT (80.59795679999999 8.040018)
Anuradhapura,Kekirawa,"NEW CITY COMMUNICATION, GANEWALPOLA RD,KEKIRAWA",NEW CITY COMMUNICATION,POINT (80.59679369999999 8.040891499999999)
Anuradhapura,Medawachchiya,"MAX PHONE ARCADE, NO.9,SHOPING COMPLEX, MADAWACHCHIYA",MAX PHONE ARCADE,POINT (80.40307319999999 8.323240499999999)
Anuradhapura,Mihintale,"Lakpura Communication, Main Street, Mihintale",Lakpura Communication,POINT (79.87923019999999 6.8060449)
Anuradhapura,Mihintale,"Astro Communication, Mihinthale Town, Mihinthale",Astro Communication,POINT (80.51148739999999 8.358723599999999)
Anuradhapura,Mihintale,"Araliya Communication, Mihinthale Town, Mihinthale",Araliya Communication,POINT (79.93401659999999 6.9264988)
Anuradhapura,Mihintale,"Petrol Shed Lanka Filling Centre, Main Street, Mihintale",Petrol Shed Lanka Filling Centre,POINT (79.89853099999999 6.8639693)
Anuradhapura,Nochchiyagama,"THARU COMMUNICATION & MALIN ELECTRICALS, RAJINA JUNCTION,NoCHCHIYAGAMA",THARU COMMUNICATION & MALIN ELECTRICALS,POINT (80.7327737 6.0488883)
Anuradhapura,Nochchiyagama,"Suramya Communication., Puttalam Rd, Nochchiyagama",Suramya Communication.,POINT (80.20440789999999 8.260858899999999)
Anuradhapura,Padaviya,"MILAN COMMUNICATION, PADAVI, PARAKRAMAPURA",MILAN COMMUNICATION,POINT (80.77570200000001 8.903964)
Anuradhapura,Pubbogama,"Roshan Communication, New Town, Galkiriyagama",Roshan Communication,POINT (80.570881 7.828863399999999)
Anuradhapura,Rambewa,"Chathuranga Communication, Main Street, Rambewa",Chathuranga Communication,POINT (80.60883219999999 6.925175299999999)
Anuradhapura,Rambewa,"Sithmal Communication, Main Street, Rambewa",Sithmal Communication,POINT (79.8533577 6.921549400000001)
Anuradhapura,Rambewa,"Sena Super Mart, Jaffna Road Main Street, Rambewa",Sena Super Mart,POINT (80.5067248 8.4430227)
Anuradhapura,Rambewa,"SAYUMI BOOKSHOP, Pallankulama Road, Rambewa",SAYUMI BOOKSHOP,POINT (79.8559102 6.937862)
Anuradhapura,Tambuttegama,"JAYASIRI COMM, BUS STAND, THAMBUTTEGAMA",JAYASIRI COMM,POINT (79.93023700000001 6.979217299999999)
Anuradhapura,Tambuttegama,"Nethmini Fashion And Book Shop, Musalpitiya, Thambuttegama",Nethmini Fashion And Book Shop,POINT (80.29651389999999 8.1545305)
Badulla,Badulla,"The Phone Factory And Communication, No.19 Viharagoda Bank RoadBadulla",The Phone Factory And Communication,POINT (81.0599603 6.9844078)
Badulla,Badulla,"Nanda Stores, 19 , Springweli Rd , Badulla",Nanda Stores,POINT (81.06920099999999 6.982957)
Badulla,Badulla,"Hansa Studio, Kahataruppa , Badulla., Kahataruppa",Hansa Studio,POINT (81.116086 7.0236926)
Badulla,Badulla,"Call Center, No.02 Bus Stand, Badulla, Badulla",Call Center,POINT (81.05789369999999 6.9877357)
Badulla,Badulla,"Little Jhones, No.25-b Complex Bus Stand, Badulla, Badulla",Little Jhones,POINT (81.0575872 6.9878391)
Badulla,Badulla,"Ontrack Com, No.281 Passara Road, Badulla",Ontrack Com,POINT (81.0541757 6.993534299999999)
Badulla,Badulla,"DMW  NETWORK, NO.02,KANDY ROAD, MEEGAHAKIULA",DMW  NETWORK,POINT (79.9566564 7.0048193)
Badulla,Badulla,"C3 Communication, No.1a Dharmadutha Rd, Badulla",C3 Communication,POINT (81.0594461 6.9880447)
Badulla,Badulla,"Speedlink Communication Centre, No.10 Lower Street, Badulla",Speedlink Communication Centre,POINT (81.05973639999999 6.9856661)
Badulla,Badulla,"Rainbow Call, 05/06,bus Stand, Badulla",Rainbow Call,POINT (81.05757349999999 6.9879886)
Badulla,Badulla,"New Ranjaya Communication, No.69 Kanupelella Road, Badulla",New Ranjaya Communication,POINT (81.06121929999999 6.979945400000001)
Badulla,Badulla,"Deen Communication, No.10 Bus Stand, Badulla",Deen Communication,POINT (81.05757349999999 6.9879886)
Badulla,Badulla,"Deepani Communication, No.19 Bandarawela Road, Badulla",Deepani Communication,POINT (81.05392449999999 6.9907378)
Badulla,Badulla,"Sri Krishna Com, Main Street , Lunugala",Sri Krishna Com,POINT (80.6769731 7.5206335)
Badulla,Badulla,"Deepani Communication, No.19 Bandarawela Road , Badulla",Deepani Communication,POINT (81.05392449999999 6.9907378)
Badulla,Badulla,"FAWZUL M CENTER, HALANGAHAPOLA BAZER, RENDAPOLA",FAWZUL M CENTER,POINT (80.8312507 6.916786699999999)
Badulla,Bandarawela,"E.M.K.Communication, No.29 Dharmawijaya Mawatha, Bandarawela",E.M.K.Communication,POINT (80.98906389999999 6.8305947)
Badulla,Bandarawela,"NIPON COMMUNICATION, 37, 1ST FLOOR, MAIN STREET, BANDARAWELA",NIPON COMMUNICATION,POINT (81.00387889999999 6.8314627)
Badulla,Bandarawela,"NAMAL STORES, ATHTHALAPITIYA , BANDARAWELA",NAMAL STORES,POINT (80.9890023 6.8498087)
Badulla,Bandarawela,"LIYANGAHAWELA GROCERY, NO.21,LIYANGAHAWELA, BANDARAWELA",LIYANGAHAWELA GROCERY,POINT (81.0284229 6.8110625)
Badulla,Bandarawela,"GNANAM VIDEO, NO.17,DYRAAE ESTATE,, BANDARAWELA",GNANAM VIDEO,POINT (81.0018539 6.8063908)
Badulla,Diyatalawa,"OSHAN BOOK SHOP & COMMUNACATION, HELAKADURUGAMUWADIYATALAWA",OSHAN BOOK SHOP & COMMUNACATION,POINT (79.92354619999999 6.895281)
Badulla,Diyatalawa,"SAUSIRI COMMUNICATION & TECHNoLOGY, FAIR ROAD, DIYATALAWA",SAUSIRI COMMUNICATION & TECHNoLOGY,POINT (80.95590639999999 6.8067413)
Badulla,Diyatalawa,"MAURA ENTERPRISES, KAHAGOLLA , DIYATALAWA",MAURA ENTERPRISES,POINT (80.9748173 6.8194864)
Badulla,Diyatalawa,"AJEE COMMUNICATION, MAIN STREET, DIYATHALAWA",AJEE COMMUNICATION,POINT (80.95723149999999 6.8081312)
Badulla,Diyatalawa,"V F T S WELFEAR SHOP, V F T S CAMP, DIYATALAWA",V F T S WELFEAR SHOP,POINT (80.9579509 6.813037899999999)
Badulla,Girandurukotte,"Palitha Phone Center, New TownGirandurukotte",Palitha Phone Center,POINT (81.01814069999999 7.472368299999999)
Badulla,Hali-Ela,"Mallika Group, Badulla Road , Hali Ela",Mallika Group,POINT (81.03302390000002 6.9574229)
Badulla,Hali-Ela,"MALLIKA TRADERS, NO.75,BADULLA RD, HALILLA",MALLIKA TRADERS,POINT (81.00115699999999 6.834289000000001)
Badulla,Hali-Ela,"Sumanasiri Hardware, Bandarawela Road Uduwara, Hali Ela, Udoowara",Sumanasiri Hardware,POINT (81.0405968 6.929659)
Badulla,Hali-Ela,"Fathima Stores, Galauda, Hali Ela",Fathima Stores,POINT (80.9862237 7.0400243)
Badulla,Hali-Ela,"KARUNARATHNA STORES & COMM, NO 12 & 14,BADULLA ROAD, HALIELA., HALIELA",KARUNARATHNA STORES & COMM,POINT (81.0318218 6.955781500000001)
Badulla,Kandaketiya,"Phone Repaire Center, No.U/3/B/2 Kadadapottawa, Badulu Oya, Kandaketiya",Phone Repaire Center,POINT (81.02192789999999 7.130595599999999)
Badulla,Lunugala,"DANALAKSHMEE STORES, NO 152 , MAIN STREET,   LUNUGALA",DANALAKSHMEE STORES,POINT (79.8643196 6.8607292)
Badulla,Mahiyanganaya,"Kottagoda Cellular, New Town, Mahiyanganaya, Mahiyanganaya",Kottagoda Cellular,POINT (80.99233699999999 7.338265099999999)
Badulla,Mahiyanganaya,"Sithija Cellular, No.15 Badulla Road Bus Stand, Mahiyanganaya",Sithija Cellular,POINT (80.99255359999999 7.339163399999999)
Badulla,Mahiyanganaya,"Anagi Communication, Redeekotaliya Badulla Road, Mahiyanganaya",Anagi Communication,POINT (80.9917497 7.3387083)
Badulla,Mahiyanganaya,"Jaan mobile mart & commiuinication, 15,PRIVAT BUS STAND, MAHIYANGANA",Jaan mobile mart & commiuinication,POINT (80.9921088 7.338807600000001)
Badulla,Mahiyanganaya,"Sharmila Book Shop, No.17 Badulla Rd Puja Town, Mahiyanganaya",Sharmila Book Shop,POINT (80.99076520000001 7.324104900000001)
Badulla,Meegahakivula,"Chandana Communication, Kandy Road, Meegahakivula, Meegahakiwla",Chandana Communication,POINT (81.0480939 7.137479099999999)
Badulla,Passara,"Manisras Fancy House, Main Street , Passara",Manisras Fancy House,POINT (79.9261795 6.846366799999999)
Badulla,Rideemaliyadda,"GURUGE STORES, rIDIMALIYADDA, RIDIMALIYADDA",GURUGE STORES,POINT (81.12247429999999 7.2166848)
Badulla,Welimada,"PRASAD GRAPHICS & COMPUTERS, No 95 , BADULLA ROAD, WELIMADA",PRASAD GRAPHICS & COMPUTERS,POINT (81.04301199999999 6.8879892)
Badulla,Welimada,"Sumanasiri Hardware, Bandarawela Road Uduwara, Hali Ela, Udoowara",Sumanasiri Hardware,POINT (81.0405968 6.929659)
Badulla,Welimada,"Gajamuthu Trade Centre, Ranhawadigama, Uva Paranagama",Gajamuthu Trade Centre,POINT (80.880366 6.951430999999999)
Badulla,Welimada,"ROSHI CREATIONS, OLD POST OFFICE ROAD, WELIMADA",ROSHI CREATIONS,POINT (80.9122831 6.9051646)
Badulla,Welimada,"JAYAMAGA STORES, NO 1/29 , DIURUMGAMA,NUGATHALAWA, WELIMADA",JAYAMAGA STORES,POINT (80.90792449999999 6.901907200000001)
Badulla,Welimada,"NEW KUBRA JEWELERS & COM, NO.46, BADULLA ROAD, WELIMADA",NEW KUBRA JEWELERS & COM,POINT (80.91198919999999 6.9055217)
Badulla,Welimada,"VIPULA STORES, GIRAABE , NUGATHALAWA, WELIMADA",VIPULA STORES,POINT (80.9159458 6.9052345)
Badulla,Welimada,"KUMARA HOTEL & COMMUNICATION, BANDARAWELA RD,DIVITHOTAWELA, WELIMADA",KUMARA HOTEL & COMMUNICATION,POINT (80.9159458 6.9052345)
Colombo,Angoda,"Purasanda Communication And Internet Cafe, No.04 Hospital Road, Angoda",Purasanda Communication And Internet Cafe,POINT (79.93175339999999 6.885803)
Colombo,Angoda,"SAHANA COMMUNICATION, 219/1,KELANIMULLA,ANGODA",SAHANA COMMUNICATION,POINT (79.92068019999999 6.9412743)
Colombo,Angoda,"Yusara Com, No.594 J/Avissawella Rd, Angoda",Yusara Com,POINT (79.89475849999999 6.938597799999999)
Colombo,Angoda,"M.S.MOBILE, 6B,MAHABUTHGAMUWA, KOTIKAWATHTHA",M.S.MOBILE,POINT (79.85176249999999 6.937959)
Colombo,Athurugiriya,"sureka  comm, 278/2  godagama   road   athurugiriya",sureka  comm,POINT (79.9958305 6.865114300000001)
Colombo,Athurugiriya,"FRESH & EASY, 2010,MILLENIUE CITY, ATHURUGIRIYA",FRESH & EASY,POINT (79.9867206 6.8792209)
Colombo,Athurugiriya,"SHA COM, 5, SHANTHALOKAGAMA, ORUWALA, ATHURUGIRIYA",SHA COM,POINT (79.9681552 6.886564799999999)
Colombo,Athurugiriya,"SUHADA COMMUNICATION, 57, MAIN STREET, ATHURUGIRIYA",SUHADA COMMUNICATION,POINT (79.910056 6.867414999999999)
Colombo,Athurugiriya,"Walgama Communication, No.1/425 Walagama Junction, Athurugiriya",Walgama Communication,POINT (79.9958305 6.865114300000001)
Colombo,Atul Kotte,"SITHWAY E-CAFE, 27, ANANDABALIKA MW, KOTTE",SITHWAY E-CAFE,POINT (79.8970346 6.885642)
Colombo,Avissawella,"Pathum Book Shop, No.05 Kudagama Road Ukwatta Junction, Avissawella",Pathum Book Shop,POINT (80.2042799 6.9550082)
Colombo,Avissawella,"DEPTI  COMUNICATION, R 39, AVISSAWELLA",DEPTI  COMUNICATION,POINT (80.2129109 6.951250399999999)
Colombo,Avissawella,"Iresha Communication, Police Junction, Kosgama",Iresha Communication,POINT (80.1378687 6.9465971)
Colombo,Avissawella,"OASIS COMMIUNICATION, IHALA KOSGAMAKOSGAMA",OASIS COMMIUNICATION,POINT (80.1216106 6.945348099999999)
Colombo,Avissawella,"Pathirana Comiunication, Thummodara Road,Puwakpitiya",Pathirana Comiunication,POINT (80.1876721 6.923955899999999)
Colombo,Avissawella,"JANANEE COMMUNICATION, 22,SUPER MARKET,HANWELA",JANANEE COMMUNICATION,POINT (80.0814901 6.908964000000001)
Colombo,Avissawella,"CHATHURANGA COMMUNICATION, PINNAWALA, WAGA",CHATHURANGA COMMUNICATION,POINT (80.12566939999999 6.8987303)
Colombo,Avissawella,"Munasinghe Stores, No.72 Pinnawala, Waga",Munasinghe Stores,POINT (80.12162669999999 6.8722365)
Colombo,Avissawella,"Nisansala Communication, Labugama Road Mabula, Waga",Nisansala Communication,POINT (80.14652219999999 6.8674048)
Colombo,Avissawella,"SEYARO E-SOLUTION, 27,KAHAHENA, WAGA",SEYARO E-SOLUTION,POINT (80.1279632 6.9009746)
Colombo,Avissawella,"Silverline Communication, No.67b Yatiyanthota Road, Avissawella",Silverline Communication,POINT (79.9864821 6.941621)
Colombo,Avissawella,"Soba Communication, No.05 Yatiyanthota Road, Avissawella",Soba Communication,POINT (80.212323 6.9530826)
Colombo,Avissawella,"S A MOBILE, 09, NEW SHOPPING COMPLEX,, AVISSAWELLLA",S A MOBILE,POINT (79.9074409 6.7163723)
Colombo,Avissawella,"Odil, No.R33 New Marketing Complex Rathnapura Road, Avissawella",Odil,POINT (80.2166177 6.9336083)
Colombo,Avissawella,"Sri Jaya Com, No.7,Rathnapura rd, Avissawella",Sri Jaya Com,POINT (80.21246270000002 6.9529321)
Colombo,Avissawella,"Manahara Bookshop And Communication, No.39 Rathnapura Road, Avissawella",Manahara Bookshop And Communication,POINT (80.213375 6.951108000000001)
Colombo,Avissawella,"Book Mark Book Shop, Pahala, Kosgama,, Kosgama",Book Mark Book Shop,POINT (80.1373289 6.9412971)
Colombo,Bambalapitiya,"Bobby Communication, No.443/C Galle Road, Bambalapitiya",Bobby Communication,POINT (79.859464 6.880972)
Colombo,Bandaragama,"Chamara Book Shop, Kesbewa Road,Bandaragama",Chamara Book Shop,POINT (79.9887614 6.7144786)
Colombo,Bandaragama,"Chandra Vedio, No.37,Kesbewa Road,Bandaragama",Chandra Vedio,POINT (79.92415459999999 6.8004026)
Colombo,Battaramulla,"Vibhasha Communication, No.205 Kaduwela Road, Battaramulla",Vibhasha Communication,POINT (79.9277263 6.905693200000001)
Colombo,Battaramulla,"SHA COM, 565/B,KOSWATTA RD,THALANGAMA NoRTH,BATTARAMULLA",SHA COM,POINT (79.93289109999999 6.9037194)
Colombo,Battaramulla,"SMJ MOBILE ZONE, NO 83, KADUWELA ROAD, BATTARAMULLA",SMJ MOBILE ZONE,POINT (79.9263296 6.8933974)
Colombo,Boralasgamuwa,"S S Com, No.217 Egodawatta Rd, Boralesgamuwa",S S Com,POINT (79.9063372 6.8504238)
Colombo,Boralasgamuwa,"Ransara Communication, No.196 Kesbewa Road, Boralesgamuwa",Ransara Communication,POINT (79.89777289999999 6.8488794)
Colombo,Colombo,"Brighten Mobile Center., No:130,Malay Street, Colombo 02",Brighten Mobile Center.,POINT (79.85066359999999 6.924604899999999)
Colombo,Colombo,"V.SHANTHINI, NO.34,BODHIRAJA MW, COLOMBO-11",V.SHANTHINI,POINT (79.85420409999999 6.9364683)
Colombo,Colombo,"APPLE Reload, PRINCE STREET, COLOMBO 11",APPLE Reload,POINT (79.85066359999999 6.9355319)
Colombo,Colombo,"SKY Line Telecom, 122  York street, Colombo 01",SKY Line Telecom,POINT (79.84693999999999 6.934578399999999)
Colombo,Colombo,"NEW STAR SEIECTION,  1154,OLCOTT MW, COLOMBO 11",NEW STAR SEIECTION,POINT (79.85024159999999 6.9342412)
Colombo,Colombo,"HI DEE TRADERS, 43, BAUDDHALOKA MW., COLOMBO 04",HI DEE TRADERS,POINT (79.85580779999999 6.895775)
Colombo,Colombo,"Thusitha Book Shop And Communication, No.28 Avissawella Rd, Orugodawatta",Thusitha Book Shop And Communication,POINT (79.8805764 6.944383699999999)
Colombo,Colombo,"Upekshika Communication, No.47/H/9 Rawatta Lane, Colombo 15",Upekshika Communication,POINT (79.85343259999999 6.9006583)
Colombo,Colombo,"MILINDA COMMUNICATION, NO.157,ST.ANDREWS PLACE, COLOMBO-15., Colombo 15",MILINDA COMMUNICATION,POINT (79.8599782 6.958709799999999)
Colombo,Colombo,"Metro Communication And Fancy, No.380 Modara Street, Colombo 15",Metro Communication And Fancy,POINT (79.8726379 6.970283800000001)
Colombo,Colombo,"Blackbeery Communication , 338, Alvitigala Mawatha , COLOMBO 05",Blackbeery Communication ,POINT (79.8769514 6.8989205)
Colombo,Colombo,"NEW GLOBAL COMMUNICATION, NO.334, ELVITIGALA MW,   NARAHENPITA, COLOMBO-05",NEW GLOBAL COMMUNICATION,POINT (79.876953 6.8989702)
Colombo,Colombo,"GUNA COMMUNICATION, 3,MAYBLE ROAD KOTAHENA, COLOMBO13",GUNA COMMUNICATION,POINT (79.862765 6.9517742)
Colombo,Colombo,"RATHNA TAILORS, NO.480B,BLUMENDHALNRD, COLOMBO13",RATHNA TAILORS,POINT (79.8528536 6.9401452)
Colombo,Colombo,"New Dehiwala Multi Pharmacy And Grocery, No.E/2/G/2 Maligawatta Housing Scheme, Colombo 10",New Dehiwala Multi Pharmacy And Grocery,POINT (79.8696094 6.8768588)
Colombo,Colombo,"Hidayas Communication, No.167 Deans Road Maradana, Colombo 10",Hidayas Communication,POINT (79.8533577 6.921549400000001)
Colombo,Colombo,"G.K.Communication, No.112a Deans Road Maradana, Colombo 10",G.K.Communication,POINT (79.8651266 6.9248997)
Colombo,Colombo,"Ai - Asbaab Explorer & Com, No.146,Leyards Broadway, Colombo 14",Ai - Asbaab Explorer & Com,POINT (79.86748419999999 6.944525199999999)
Colombo,Colombo,"NILU COMMUNICATION, E4, KAMKARUPURA FLAT,ORUGODAWATTA, COLOMBO 14",NILU COMMUNICATION,POINT (79.8701306 6.9441115)
Colombo,Colombo,"Nero Telecom, No.16 Bapist Chapel Road, Colombo 07",Nero Telecom,POINT (79.89389779999999 6.8721529)
Colombo,Colombo,"Yasa Isuru Communication, No.D 75/260 Saranapalahimi Mw Borella, Colombo 8",Yasa Isuru Communication,POINT (79.876097 6.9154943)
Colombo,Colombo,"Kandy Food Carner And Communication, No.582/1a Baseline Road Dematagoda, Colombo 9",Kandy Food Carner And Communication,POINT (79.87842599999999 6.9372231)
Colombo,Colombo,"Rikaz Stores, No.371,Jumma Musjid Road,Maligawatta, Colombo 10",Rikaz Stores,POINT (79.8723146 6.9368653)
Colombo,Colombo,"Safraz Communication, No.07,Dias Place,Gunasinghepura, Colombo 12",Safraz Communication,POINT (79.85768569999999 6.9368175)
Colombo,Colombo,"SMART HOUSE, NO.187,GALLE RD, COLOMBO-03",SMART HOUSE,POINT (79.84926179999999 6.9130962)
Colombo,Colombo,"Samsung Smart Cafe, No 61/1 A, Stace Road, Colombo 14",Samsung Smart Cafe,POINT (79.8762593 6.9435927)
Colombo,Colombo,"Ranji Fancy, No.197 Modara Street, Colombo 15",Ranji Fancy,POINT (79.87251619999999 6.9703642)
Colombo,Colombo,"V N R Enterprises And Communication, No.171 Muthuwella Mawatha, Colombo 15",V N R Enterprises And Communication,POINT (79.8631681 6.962135699999999)
Colombo,Colombo,"Kaman Communication, No.110/3,Delasal Street,Modara,Colombo 15., Colombo 15",Kaman Communication,POINT (79.862337 6.962210799999999)
Colombo,Colombo,"COM SYSTEM COM, NO.72,AWISSAWELLA RD, ORUGODAWATTA",COM SYSTEM COM,POINT (79.88333449999999 6.947515999999999)
Colombo,Colombo,"3G MOBILE, HIGH LEVEL ROAD, KIRULAPONE",3G MOBILE,POINT (79.8712721 6.822941999999999)
Colombo,Colombo,"Designcom Pvt Ltd, No.106 Pamankada Road, Colombo 05",Designcom Pvt Ltd,POINT (79.87262969999999 6.878377100000001)
Colombo,Colombo,"Phone Lanka., No: 49 A,Union Place, Colombo 02",Phone Lanka.,POINT (79.8531627 6.9224048)
Colombo,Colombo,"SPEED @ I NET, NO.206B,GALLE RD, COLOMBO-06",SPEED @ I NET,POINT (79.86163759999999 6.8722448)
Colombo,Colombo,"Techno Net Cafe, Hampden Lane, Colombo 06",Techno Net Cafe,POINT (79.8663347 6.8735921)
Colombo,Colombo,"Mamco Agency Post Office, No.408/B Maradana Rd, Colombo 10",Mamco Agency Post Office,POINT (79.87086429999999 6.9212929)
Colombo,Colombo,"City Com, No.10 Mahakumarage Mawatha, Colombo 14",City Com,POINT (79.87147569999999 6.9471265)
Colombo,Colombo,"Ashoka Communication, No.432 Grandpass Road, Colombo 14",Ashoka Communication,POINT (79.8533577 6.921549400000001)
Colombo,Colombo,"Tranceworld Communication, No.194/A Mohideen Masjid Road Maradana, Colombo 10",Tranceworld Communication,POINT (79.860564 6.939397)
Colombo,Colombo,"M.S.A.GHANY, NO.180,MOHIDEEN MASJID RD,MARADANA, COLOMBO-10",M.S.A.GHANY,POINT (79.8645892 6.9319891)
Colombo,Colombo,"Amaan At Cafe, No.388a Baseline Rd Dematagoda, Colombo 9",Amaan At Cafe,POINT (79.878193 6.9307945)
Colombo,Colombo,"Mathu Video Pvt Ltd, No.163 New Chetty Street, Colombo 13",Mathu Video Pvt Ltd,POINT (79.8596354 6.9455487)
Colombo,Colombo,"Sumo Pharmacy, No.45/A Kotahena Street, Colombo 13",Sumo Pharmacy,POINT (79.8623003 6.947773)
Colombo,Colombo,"Global Communication, No.255 14th Division Maradana, Colombo 10",Global Communication,POINT (79.8656089 6.9272771)
Colombo,Colombo,"MOBILIX LANKA (PVT)LTD, 562,GALLE ROAD, COLOMBO 05",MOBILIX LANKA (PVT)LTD,POINT (79.8530171 6.9012832)
Colombo,Colombo,"WASANA COMMUNICATION, NO.351,KIRIWANDAL, PUWAKPITIYA",WASANA COMMUNICATION,POINT (80.1930181 6.935517399999999)
Colombo,Colombo,"Sriram Communication, No.240 Mahavidyalaya Mawatha, Colombo 13",Sriram Communication,POINT (79.8603765 6.9417803)
Colombo,Colombo,"TIRANTHA COMMUNICATION, KOLLONNAWA, COLOMBO 14",TIRANTHA COMMUNICATION,POINT (79.8701306 6.9441115)
Colombo,Colombo,"SAMPATH ENTERPRIES, 4/6, ELVITIGALA  RD, , COLOMBO, 08",SAMPATH ENTERPRIES,POINT (79.87728559999999 6.8945754)
Colombo,Colombo,"Orbit Communication, No.1053 Maradana Road Borella, Colombo 8",Orbit Communication,POINT (79.87353159999999 6.919098)
Colombo,Colombo,"Feathers Com, No.1076,Maradana Road,Borella,, Colombo 08",Feathers Com,POINT (79.8771261 6.9150037)
Colombo,Colombo,"Sarath Stores, No.59/49B,Baseline mw,Colombo 09, Colombo 09",Sarath Stores,POINT (79.86135469999999 6.927243799999999)
Colombo,Colombo,"Prakshana Com, No.321 Sea Street, Colombo 11",Prakshana Com,POINT (79.85404299999999 6.93945)
Colombo,Colombo,"Shakiras, No.51 D York Street, Colombo 01",Shakiras,POINT (79.84555259999999 6.9355177)
Colombo,Colombo,"NAFEES COMMUNICATION, 309, DEMATAGODA RD,, 0EMATAGODA,COLOMBO 09",NAFEES COMMUNICATION,POINT (79.8785999 6.9386437)
Colombo,Colombo,"MEGA BYTE COMMUNICATION, NO.245,1ST DIVISION,, MARADANA,COLOMBO 10",MEGA BYTE COMMUNICATION,POINT (79.8689971 6.9233595)
Colombo,Colombo,"Mega Byte Communication, No.118B,Jampettah Street,, COLOMBO 13",Mega Byte Communication,POINT (79.8592532 6.9460466)
Colombo,Colombo,"RUWAN TRADE CENTER, 180/101,PEOPLE'S PARK,, COL.11",RUWAN TRADE CENTER,POINT (79.85420409999999 6.9364683)
Colombo,Dehiwala,"Nihal Communication, No.3C,Station Road, Dehiwala",Nihal Communication,POINT (79.8657089 6.851152099999999)
Colombo,Dehiwala,"Rivisandu, No.368/A Hospital Rd, Kalubowila",Rivisandu,POINT (79.8743302 6.8657757)
Colombo,Dehiwala,"Perferc Ads, No.30c S.D.E.S.Jayasinghe Road, Kalubowila",Perferc Ads,POINT (79.8804038 6.871975700000001)
Colombo,Dehiwala,"C.M.H.Com, No.81B, Saranankara Rd, Kalubowila , Dehiwala",C.M.H.Com,POINT (79.8675738 6.8714512)
Colombo,Dehiwala,"PIUMI GROCERIES, NO.53/A,PEIRIS AVENUE,KALUBOWILA,, DEHIWALA",PIUMI GROCERIES,POINT (79.87678509999999 6.8633153)
Colombo,Dehiwala,"Dilu Communication, No.35 A Galle Road, Dehiwala",Dilu Communication,POINT (79.8643196 6.8607292)
Colombo,Dehiwala,"Vj Communications And Cafe, No.163c Hospital Road, Kalubowila",Vj Communications And Cafe,POINT (79.8759376 6.8662769)
Colombo,Dehiwala,"G&D Com, 102/d attidiya Rd, Dehiwala",G&D Com,POINT (79.8858675 6.836982)
Colombo,Hanwella,"Lakmali Communication, Highlevel Road Pahathgama, Hanwella",Lakmali Communication,POINT (80.08781309999999 6.9017373)
Colombo,Hanwella,"COLOURMIX, 43 1/1, MAIN STREET, HANWALLA",COLOURMIX,POINT (79.79659629999999 7.583079699999999)
Colombo,Hanwella,"CHINTHAKA STORES, 217/A THUNNANA, HANWELLA",CHINTHAKA STORES,POINT (80.0033772 6.841921999999999)
Colombo,Hanwella,"Edirisinghe Communication, Near The Temple Highlevel Road Thunnana, Hanwella",Edirisinghe Communication,POINT (80.0878372 6.8866894)
Colombo,Hanwella,"THE PRINT SHOP, SUPER MARKAT,, HANWELLA",THE PRINT SHOP,POINT (80.0808736 6.908809499999999)
Colombo,Hanwella,"SARANGA ELECTRICALS AND TRADERS, No 193/A, wanahagoda Hanwella",SARANGA ELECTRICALS AND TRADERS,POINT (80.08124339999999 6.9086774)
Colombo,Hokandara,"J.P.COMMUNICATION, 79/B2,HOKANDARA EAST, HOKANDARA",J.P.COMMUNICATION,POINT (79.9691145 6.8772712)
Colombo,Homagama,"ARUNALU BOOK SHOP, 101/1A SHCOOL JANGTION PITIPANA NoRT, HOMAGAMA",ARUNALU BOOK SHOP,POINT (80.02202419999999 6.840482499999999)
Colombo,Homagama,"GALAGEDARA COMMUNICATION, 82,PITIPANA NoRTH,HOMAGAMA",GALAGEDARA COMMUNICATION,POINT (80.0265744 6.827907)
Colombo,Homagama,"Exceed Communication And Video Centre, No.211/10 Katuwana Road, Homagama",Exceed Communication And Video Centre,POINT (80.0036918 6.828408100000001)
Colombo,Homagama,"Jayasooriya Book Shop And Communication, No.299 Magammana, Homagama",Jayasooriya Book Shop And Communication,POINT (80.0000371 6.8493137)
Colombo,Homagama,"Gayara Communication, No.1 Super Market, Homagama",Gayara Communication,POINT (80.00408259999999 6.8415997)
Colombo,Homagama,"Vista Communication, No.96/A Station Road, Homagama",Vista Communication,POINT (79.97488709999999 6.8116641)
Colombo,Homagama,"Enuri Communication, No.35 Pitipana Town Highlevel Road, Homagama",Enuri Communication,POINT (80.0187129 6.8482694)
Colombo,Homagama,"Risaja Enterprises, No.1 Super Market, Homagama",Risaja Enterprises,POINT (80.00513200000002 6.8413315)
Colombo,Homagama,"Wave GSM, No 22/A, Katuwana Rd, Homagama",Wave GSM,POINT (80.00289339999999 6.8400987)
Colombo,Homagama,"Jeewani Book Shop, No.212 Galawilawatta Highlevel Road, Homagama",Jeewani Book Shop,POINT (80.0028042 6.8410458)
Colombo,Homagama,"Thilina Communication, No.45 Katuwana Road, Homagama",Thilina Communication,POINT (80.00313799999999 6.840641799999999)
Colombo,Homagama,"Chathuries Book Shop And Communication, No.65 Katuwana Road, Homagama",Chathuries Book Shop And Communication,POINT (80.0031163 6.8404542)
Colombo,Homagama,"EXPERT, 31, STATION RD, HOMAGAMA",EXPERT,POINT (80.0032286 6.842060500000001)
Colombo,Homagama,"Gate Way Gsm And Communication, No.428 Highlevel Road, Homagama",Gate Way Gsm And Communication,POINT (80.0325357 6.8517966)
Colombo,Homagama,"Sisina Communication, No.09 Highlevel Road, Homagama",Sisina Communication,POINT (80.0027851 6.8411646)
Colombo,Homagama,"Hot Line Cellular, No.27 Katuwana Road, Homagama",Hot Line Cellular,POINT (80.00610519999999 6.833081399999999)
Colombo,Homagama,"DAVID PLAZA, 786,HIGHLEVEL RD, HOMAGAMA",DAVID PLAZA,POINT (80.0195219 6.8479779)
Colombo,Homagama,"Thanuja Book Shop, Abarawatha Mawatha, Pitipana, Homagama",Thanuja Book Shop,POINT (80.0184663 6.8444093)
Colombo,Homagama,"ONWELL COMMUNICATION, NO:307/1,MEEGASMULLA,PANAGODA, HOMAGAMA",ONWELL COMMUNICATION,POINT (80.02732400000001 6.874960000000001)
Colombo,Homagama,"Nenawaruna Book Shop, No.187 Highlevel Road Galawilawatta, Homagama",Nenawaruna Book Shop,POINT (79.9913655 6.8394514)
Colombo,Homagama,"Kmg Communication, No.25 Athurugiriya Road, Homagama",Kmg Communication,POINT (79.96991460000001 6.844563399999999)
Colombo,Homagama,"PARAMEE BOOK SHOP, 607/10/C, PITIPANA TOWN, HOMAGAMA",PARAMEE BOOK SHOP,POINT (80.2620833 7.234631299999999)
Colombo,Homagama,"Vidushan Communication, No.114/C Highlevel Road, Homagama",Vidushan Communication,POINT (80.006012 6.8423285)
Colombo,Kaduwela,"St.Marys Communication, No.05 Welivita, Kaduwela",St.Marys Communication,POINT (79.9617224 6.9357064)
Colombo,Kaduwela,"LAHIRU COMMUNICATION, 83,EMBULGAMA, RANALA",LAHIRU COMMUNICATION,POINT (79.96807489999999 6.8027557)
Colombo,Kaduwela,"SELAS ELECTRICALS & LIGHTFITTIN, 139/C NEW KANDY ROADKOTHALAWALA, KADUWELA",SELAS ELECTRICALS & LIGHTFITTIN,POINT (79.9722311 6.9128456)
Colombo,Kesbewa,"Chamara Book Shop, Kesbewa Road,Bandaragama",Chamara Book Shop,POINT (79.9887614 6.7144786)
Colombo,Kolonnawa,"Diwijaya Book Shop And Communication, No.69 Kolonnawa Road, Kolonnawa",Diwijaya Book Shop And Communication,POINT (79.9235262 6.9169)
Colombo,Kolpitty,"Nasa Com., No:07,School Lane, Colombo 03",Nasa Com.,POINT (79.85481249999999 6.896198099999999)
Colombo,Kolpitty,"Mobi World, 505, Galle Rd, Colombo 3",Mobi World,POINT (79.8511063 6.9119458)
Colombo,Kosgama.,"ICom Cpmmunication, 375/D, High Level Rd, Boralugoda, Kosgama",ICom Cpmmunication,POINT (79.9660294 6.8084998)
Colombo,Kotikawatta,"TERANCE COMMUNICATION, 107/1,KOTIKAWATTA,ANGODA",TERANCE COMMUNICATION,POINT (79.9165273 6.9300145)
Colombo,Kottawa,"BOOK SHOP, No.1009/5, ""SAMPATH"" Liyanagoda Rd, KatukurundaKottawa",BOOK SHOP,POINT (79.99885519999999 6.6616146)
Colombo,Kottawa,"Neranja Communication, 1624/1, Malabe Road, Kottawa, Pannipitiya",Neranja Communication,POINT (79.96902489999999 6.8488922)
Colombo,Kottawa,"AMARASINGHE STORES, 457,KOTTAWA, PANNIPITIYA",AMARASINGHE STORES,POINT (79.95558459999999 6.8452464)
Colombo,Kottawa,"Thilini Book Shop, No.617/1/2 Erewwala, Pannipitiya",Thilini Book Shop,POINT (79.93709579999999 6.819952499999999)
Colombo,Kottawa,"Asha Stores, No.27/A5o Rukmalgama, Kottawa",Asha Stores,POINT (79.8704036 6.8646413)
Colombo,Kottawa,"KOTTAWA GROCERRY & COMMUNICATION, KOTTAWA JUNCTION, KOTTAWA",KOTTAWA GROCERRY & COMMUNICATION,POINT (79.96475339999999 6.841949199999999)
Colombo,Kottawa,"GAGANA COMM, DIGANA JUNCTON PALANWATTA, PANNIPITIYA",GAGANA COMM,POINT (79.96173019999999 6.8298785)
Colombo,Kottawa,"MANJULA COMMUNICATION, 147/1/A, HIRIPITIYA, PANNIPITIYA",MANJULA COMMUNICATION,POINT (79.9654324 6.8411652)
Colombo,Kottawa,"RAN HIRU BOOK SHOP, 1180/2A, MALABE ROAD, KOTTAWA, PANNIPITIYA",RAN HIRU BOOK SHOP,POINT (79.9590918 6.8443076)
Colombo,Kottawa,"MANOJ COMMUNICATION, NO:40B, MABULGODA, PANNIPITIYA",MANOJ COMMUNICATION,POINT (79.9553011 6.8433199)
Colombo,Kottawa,"KUMARA ELECTRONICS, 196/2, HIRIPITIYA, PANNIPITIYA",KUMARA ELECTRONICS,POINT (79.98106079999999 6.8337419)
Colombo,Kottawa,"Hiru Communication, No.193/7/2, Mattegoda",Hiru Communication,POINT (79.97419169999999 6.813627599999999)
Colombo,Kottawa,"Laxmi Stores, NO.99,NIYANDAGALA, PANNIPITIYA",Laxmi Stores,POINT (79.9529912 6.8491107)
Colombo,Kotte,"Jinidu Communication, No.28 Rajamaha Viharaya Rd Mirihana, Kotte",Jinidu Communication,POINT (79.9047511 6.881028199999999)
Colombo,Kotte,"E-Jay Communication, No.17/A, Mahindarama Rd,, Sri Jayawardenapura Kotte",E-Jay Communication,POINT (79.9070303 6.898108799999999)
Colombo,Kotte,"Eagle Communication, No.889 Kotte Road Ethul Kotte, Kotte",Eagle Communication,POINT (79.90510639999999 6.9032721)
Colombo,Kotte,"EAGLE COMMUNICATION, NO.885/B,KOTTE RD,, ETHUL KOTTE",EAGLE COMMUNICATION,POINT (79.90510639999999 6.9032721)
Colombo,Kotte,"Akeesa Communication, Thalawathugoda Road Madiwela, Kotte",Akeesa Communication,POINT (79.94076729999999 6.8697618)
Colombo,Maharagama,"Jayasri Communication, No.157/A Dehiwala Road, Maharagama",Jayasri Communication,POINT (79.9340813 6.8488726)
Colombo,Maharagama,"Duke Communication, No.35 Old Road, Maharagama",Duke Communication,POINT (79.92778939999999 6.8462673)
Colombo,Maharagama,"WARNA COMMUNICATION, No 186A, HIGHLEVEL ROAD, MAHARAGAMA",WARNA COMMUNICATION,POINT (79.9259797 6.848049899999999)
Colombo,Maharagama,"globel communication, 159,Dehiwala road, Maharagama",globel communication,POINT (79.92546660000001 6.8446753)
Colombo,Maharagama,"Waruna Communication, No.192 Highlevel Road, Maharagama",Waruna Communication,POINT (79.9213749 6.851140699999999)
Colombo,Maharagama,"Daya Communication, No.157 Highlevel Road, Maharagama",Daya Communication,POINT (79.9259366 6.8439108)
Colombo,Maharagama,"MAHRAGAMA HARDWARE, 1/7, ANANDA MAITHRI MW, MAHARAGAMA",MAHRAGAMA HARDWARE,POINT (79.93515889999999 6.8316569)
Colombo,Maharagama,"Nethmini Video, Janatha Road Wattegedara, Maharagama",Nethmini Video,POINT (79.9219044 6.850821799999999)
Colombo,Maharagama,"Metro Communication, No.269/A, Pamunuwa",Metro Communication,POINT (79.9280139 6.8566765)
Colombo,Maharagama,"Y Com Communication, No.171 A Pamunuwa Road, Maharagama",Y Com Communication,POINT (79.9280668 6.8521782)
Colombo,Maharagama,"Voltage Com, No.159 Highlevel Road, Maharagama",Voltage Com,POINT (79.92245699999999 6.850126599999999)
Colombo,Maharagama,"Shan Vedio And Communication, No.201a Pamunuwa Road, Maharagama",Shan Vedio And Communication,POINT (79.92768699999999 6.8530387)
Colombo,Maharagama,"SITHUM COMMUNICATION, 50/1, HIGHLEVEL ROAD, MAHARAGAMA",SITHUM COMMUNICATION,POINT (79.9245782 6.848691499999999)
Colombo,Maharagama,"K.D.S.BANDARA SOMASIRI(FREELANCE), 120 A,HIGH LEVEL RD, MAHARAGAMA",K.D.S.BANDARA SOMASIRI(FREELANCE),POINT (79.9238842 6.8496134)
Colombo,Maharagama,"G P Cellular And Communication, No.12 Rajamahavihara Road Navinna, Maharagama",G P Cellular And Communication,POINT (79.91307639999999 6.854665199999999)
Colombo,Malabe,"P C TECHNOLOGY, 45 THLAHENA , MALABE",P C TECHNOLOGY,POINT (79.9670273 6.913515299999999)
Colombo,Malabe,"SAKIN COMMUNICATION, NO,172/2,WELIWITA, MALABE",SAKIN COMMUNICATION,POINT (79.97189639999999 6.915701599999999)
Colombo,Malabe,"Liyanage Stores, No.560/A Mihindu Mawatha, Malabe",Liyanage Stores,POINT (79.9643607 6.897512099999999)
Colombo,Malabe,"Sonic Music Corner, No.831/2d Bus Stand, Malambe",Sonic Music Corner,POINT (79.9545368 6.9038539)
Colombo,Maradana,"ARUNALU COMMUNICATION, No.463 A,MARADANA RD, COLOMBO-10",ARUNALU COMMUNICATION,POINT (79.8533577 6.921549400000001)
Colombo,Maradana,"Gunasiri Industries, No.865 Maradana Road Punchi Borella, Colombo 10",Gunasiri Industries,POINT (79.87074299999999 6.922076)
Colombo,Maradana,"NET CITY COMMUNICATION, No.435,2ND DIVISION,MARADANA, COLOMBO 10",NET CITY COMMUNICATION,POINT (79.8656089 6.9272771)
Colombo,Maradana,"Euraka S Shoe Palace, No.455 And 457 2nd Division Maradana Road, Colombo 10",Euraka S Shoe Palace,POINT (79.8658655 6.9271579)
Colombo,Meepe,"Pavithra Stores, No.179 Meepe Junction",Pavithra Stores,POINT (80.09057120000001 6.8607187)
Colombo,Meegoda,"YASIRU PHARMACY, 106, PADUKKA ROAD, MEEGODA",YASIRU PHARMACY,POINT (79.9872831 6.9413223)
Colombo,Meegoda,"SATHSARA COMMUNICATION, 115/8, PUWAK WATHTHA ROAD",SATHSARA COMMUNICATION,POINT (80.3671701 7.5921862)
Colombo,Moratuwa,"Nishani Electronic, No.49 Galle Road, Moratuwa",Nishani Electronic,POINT (80.0543673 6.236667499999999)
Colombo,Moratuwa,"Sun Way Gsm, No.608 Galle Rd Rawatawatta, Moratuwa",Sun Way Gsm,POINT (79.8845395 6.786982999999999)
Colombo,Moratuwa,"G.C.Communication, NO :214,Molpe Rd, Katubedda, Moratuwa",G.C.Communication,POINT (79.90067719999999 6.7946792)
Colombo,Moratuwa,"Watch Center, No.19 Ihala Indibedda, Moratuwa",Watch Center,POINT (79.89827790000001 6.778813899999999)
Colombo,Moratuwa,"Sha Multy Center, No.48 Ihala Indibedda, Moratuwa",Sha Multy Center,POINT (79.89693439999999 6.7808724)
Colombo,Moratuwa,"Indibedda Watch Center, No.19 Upper Indibedda, Moratuwa",Indibedda Watch Center,POINT (79.89827790000001 6.778813899999999)
Colombo,Moratuwa,"Sri Hemali Communication, No.213 De Soysa Rd Moratumulla, Moratuwa",Sri Hemali Communication,POINT (79.89534929999999 6.7880237)
Colombo,Moratuwa,"SAMPATH STORES, 40. PUWAKARABA, KADALANA, , MORATUWA",SAMPATH STORES,POINT (79.8943385 6.782934699999999)
Colombo,Moratuwa,"D.S. Book Centre, No.87 St.Anthonys Road Kadalana, Moratuwa",D.S. Book Centre,POINT (79.88264889999999 6.774555899999999)
Colombo,Moratuwa,"Yuran Phone Shop, No.172 New Galle Rd Egoda Uyana, Moratuwa",Yuran Phone Shop,POINT (79.8845395 6.786982999999999)
Colombo,Mount lavenia,"Nr Communication, No.101b Templers Road, Mount Lavinia",Nr Communication,POINT (79.8733972 6.831662)
Colombo,Mount lavenia,"Malaka Book Shop And Com, No.80A Temple Rd, Mt.Lavinia",Malaka Book Shop And Com,POINT (79.8746541 6.8317136)
Colombo,Nawala,"I Play Communication, 34/6, Nawala Road, Narahenpita, Colombo 05",I Play Communication,POINT (79.88035259999999 6.889193799999999)
Colombo,Nugegoda,"EXCEL COMMUNICATION, 02, SRI SORATHA MW., WIJEARAMA, NUGEGODA",EXCEL COMMUNICATION,POINT (79.90763729999999 6.855394599999999)
Colombo,Nugegoda,"Ex - Touch, No.705/B Wijerama Gangodawila, Nugegoda",Ex - Touch,POINT (79.9082281 6.8578334)
Colombo,Nugegoda,"N.I.SIRISENA, NO.169/A,OLD KOTTAWA RD,MIRIHANA,, NUGEGODA",N.I.SIRISENA,POINT (79.905911 6.8716323)
Colombo,Nugegoda,"Panasara Com, Soratha Mw, Gangodawila,, Nugegoda",Panasara Com,POINT (79.9083043 6.8577055)
Colombo,Padukka,"Dasatha Communication And Book Shop, No.147/B Meepe Junction, Padukka",Dasatha Communication And Book Shop,POINT (80.090959 6.8579895)
Colombo,Padukka,"CHAYA COMMUNICATION, 23, COLOMBO ROAD, PADUKKA",CHAYA COMMUNICATION,POINT (80.09137330000001 6.841596699999999)
Colombo,Padukka,"Isuru Book Shop, No.196 Arukwatta, Padukka",Isuru Book Shop,POINT (80.10073989999999 6.8422803)
Colombo,Piliyandala,"Desmeridian, No.278 Moratuwa Rd Suwarapola, Piliyandala, piliyandala",Desmeridian,POINT (79.9126455 6.797950699999999)
Colombo,Piliyandala,"Sanwa Lal Enterpraises, No.66 Saranapala Mawatha, Piliyandala, Piliyanda",Sanwa Lal Enterpraises,POINT (79.92363 6.80244)
Colombo,Piliyandala,"Nimsara Mobile Phone Center, No.165, Colombo RD, Bokundara, Piliyandala",Nimsara Mobile Phone Center,POINT (79.9177966 6.818267)
Colombo,Piliyandala,"Reshon Book Shop & Communication, No.4,     1st  Street, Piliyandala., Piliyandala",Reshon Book Shop & Communication,POINT (79.94353509999999 6.779619500000001)
Colombo,Piliyandala,"Thilakshi Communication, No.107 Suwarapola, Piliyandala, Piliyandala",Thilakshi Communication,POINT (79.9119661 6.7976605)
Colombo,Piliyandala,"Sarasi Book Shop And Com, No.35/A Horana Road, Piliyandala, Piliyandala",Sarasi Book Shop And Com,POINT (79.94215659999999 6.7947899)
Colombo,Piliyandala,"City Communication, No.299 Miriswatta, Piliyandala",City Communication,POINT (79.9309081 6.797294)
Colombo,Piliyandala,"AS VIDEO CENTRE, 114,MAKANDANA, MADAPATHA",AS VIDEO CENTRE,POINT (79.93818589999999 6.775414899999999)
Colombo,Piliyandala,"Deshapriya Communication, Ihala Bope",Deshapriya Communication,POINT (80.09140959999999 6.8426627)
Colombo,Piliyandala,"MADU COMMUNICATION, 47, GORAKAPITIYA, PILIYANDALA",MADU COMMUNICATION,POINT (79.94908000000001 6.8161657)
Colombo,Piliyandala,"KAVIDU GROCERY, 352, LAKE ROAD, BORALASGAMUWA",KAVIDU GROCERY,POINT (79.9201624 6.828358199999999)
Colombo,Piliyandala,"MULTIVISION ENTERTAINMENT, 57/G, HORANA ROADKESBEWA, PILIYANDALA",MULTIVISION ENTERTAINMENT,POINT (79.92323949999999 6.8012062)
Colombo,Piliyandala,"Purasanda Book Shop, No.311/A Jambugasmulla Junction, Kiriwattuduwa",Purasanda Book Shop,POINT (79.87745719999999 6.9304554)
Colombo,Piliyandala,"Ronit Computers, Thalagala, Kiriwattuduwa",Ronit Computers,POINT (80.01922999999999 6.8436086)
Colombo,Piliyandala,"T.C.R SOLUTION, 32-2-2,KOTTAWA ROAD,MAWITTARA,PILIYANDALA",T.C.R SOLUTION,POINT (79.94080169999999 6.8038546)
Colombo,Piliyandala,"Sampath Communication, No.85a Madapatha Road Kolamunna, Piliyandala, Piliyandala",Sampath Communication,POINT (79.92313729999999 6.8007712)
Colombo,Piliyandala,"SUREN COMMUNICATION, 52,MADAPATHA ROAD, KOLAMUNNA, PILIYANDALA, PILIYANDALA",SUREN COMMUNICATION,POINT (79.92313729999999 6.8007712)
Colombo,Piliyandala,"LAKMUTHU BOOK SHOP, 41/4, MADAPATHA, PILIYANDALA, PILIYANDALA",LAKMUTHU BOOK SHOP,POINT (79.9306292 6.7665539)
Colombo,Piliyandala,"Sarasi Book Shop, No.22 Colombo Road, Piliyandala, Piliyandala",Sarasi Book Shop,POINT (79.94215659999999 6.7947899)
Colombo,Piliyandala,"Swarna Communication, No.648 Bokundara, Piliyandala, Piliyandala",Swarna Communication,POINT (79.9177966 6.818267)
Colombo,Piliyandala,"Kushani Studio, No.185 Horana Road, Piliyandala, Piliyandala",Kushani Studio,POINT (79.9255034 6.799610599999999)
Colombo,Piliyandala,"Pannila Stores, No.162/1/13a Kahapola, Madapatha, Madapatha",Pannila Stores,POINT (79.9312288 6.7556658)
Colombo,Piliyandala,"Madhusha Comminication And Bookshop, No.577 Lake Road, Boralesgamuwa",Madhusha Comminication And Bookshop,POINT (79.9082878 6.842117399999999)
Colombo,Polgasovita,"K.DESITHA STORES, NO.258 B/2,HORANA RD, KAHATHUDUWA., Polgasovita",K.DESITHA STORES,POINT (79.93709579999999 6.819952499999999)
Colombo,Polgasovita,"SANOLTA BOOK SHOP, NO 169/D , HORANA ROAD, WETHARA, Polgasovita",SANOLTA BOOK SHOP,POINT (80.0344145 6.726088799999999)
Colombo,Polgasovita,"Laxman Stores, 66/21, Wethara, Polgasovita",Laxman Stores,POINT (79.8651656 6.931749099999999)
Colombo,Pita Kotte,"Jithro Book Shop, No.137/A Thalawatugoda Road Beddagana Pitakotte, Kotte",Jithro Book Shop,POINT (79.9337215 6.874937399999999)
Colombo,Wellawatta,"SING TEL, 107/D, GALLE ROAD, WELLAWATTA,COLOMBO 06",SING TEL,POINT (79.86108469999999 6.874727000000001)
Colombo,Wellawatta,"E.Solution System, No.4c1 Fussels Lane, Wellawatta",E.Solution System,POINT (79.86174919999999 6.8736893)
Colombo,Wellampitiya,"Nethmi Book Shop And Communication, No.218 Brandiyawatta, Wellampitiya",Nethmi Book Shop And Communication,POINT (79.90383199999999 6.9367987)
Galle,Elpitiya,"D.M.G.Communication, No.2 Super Market Complex, Elpitiya",D.M.G.Communication,POINT (80.0536408 6.2417748)
Galle,Elpitiya,"Lihini Gift Center, No.91 Main Street, Elpitiya",Lihini Gift Center,POINT (80.1634746 6.2920013)
Galle,Elpitiya,"Linara Fashion, No.15 Aluthgama Road, Elpitiya",Linara Fashion,POINT (80.1637676 6.293044)
Galle,Ambalangoda,"Hemasiri Enterprises, No.39e Galle Road, Ambalangoda",Hemasiri Enterprises,POINT (80.17268729999999 6.0646855)
Galle,Ambalangoda,"Namal Traders, No.114/C Galle Road, Ambalangoda",Namal Traders,POINT (80.0519795 6.2339429)
Galle,Ambalangoda,"A.S.Silva Com, No.37/A Elpitiya Road, Ambalangoda",A.S.Silva Com,POINT (80.05353749999999 6.2410127)
Galle,Baddegama,"Saniska Book Shop And Communication, Baddegama",Saniska Book Shop And Communication,POINT (80.17793469999999 6.1723127)
Galle,Baddegama,"Dhamith Cellular World, No.68c Galle Road, Baddegama",Dhamith Cellular World,POINT (80.2095235 6.0507249)
Galle,Baddegama,"Studio Liberty, Baddegama",Studio Liberty,POINT (80.1792715 6.1691383)
Galle,Baddegama,"Eminense .Com, Sandarawala Junction, Baddegama",Eminense .Com,POINT (80.1837876 6.1549824)
Galle,Baddegama,"WASANA GRAFIC, SANDARAWALA, BADDEGAMA",WASANA GRAFIC,POINT (80.1837245 6.1544291)
Galle,Balapitiya,"S.K. Communication, No.5 Main Street, Balapitiya",S.K. Communication,POINT (79.91547199999999 6.9276366)
Galle,Bentota,"Sumee Book Shop And Communication, Gonagalapura, Benthota",Sumee Book Shop And Communication,POINT (79.8774428 6.961417099999999)
Galle,Bentota,"Palitha Tailors And Communication, Miriswatta, Benthota",Palitha Tailors And Communication,POINT (79.99963049999999 6.429569)
Galle,Dodanduwa,"Chami Cellular Phone Center, No.28 Kumara Kanda, Dodanduwa",Chami Cellular Phone Center,POINT (79.8898835 6.872341599999999)
Galle,Dodanduwa,"Nandika Communication, No.47 Galle Road Kumarakanda, Dodanduwa",Nandika Communication,POINT (80.1252866 6.110365499999999)
Galle,Galle,"GALLE COMMUNICATION, HAVELOCK RD, GALLE",GALLE COMMUNICATION,POINT (80.21504299999999 6.0334059)
Galle,Galle,"Amila Book Shop, 10th Mile Post Akuressa Road, Opatha",Amila Book Shop,POINT (80.60542270000001 6.323059)
Galle,Galle,"Arrow Communication, Opposite Plywood Factory, Ginthota",Arrow Communication,POINT (83.29995249999999 17.7352775)
Galle,Galle,"Ruwan Communication And Video Center, Elpitiya Road Mahaedanda, Karandeniya",Ruwan Communication And Video Center,POINT (80.04046939999999 6.2961348)
Galle,Galle,"Manjula Book Shop And Communication, No.11 New Shopping Complex Mahaedanda, Karandeniya",Manjula Book Shop And Communication,POINT (80.09318759999999 6.2709112)
Galle,Galle,"DESANDU ELECTRONICS, MAPALAGAMA ROAD,MATTAKA, GALLE",DESANDU ELECTRONICS,POINT (80.2487136 6.308144)
Galle,Galle,"SHANTHI VIDEO, THANABADEGAMA, ETHKADUWA",SHANTHI VIDEO,POINT (80.0405243 6.5235362)
Galle,Galle,"Naveen Communication, Atakohota, Nawadagala",Naveen Communication,POINT (80.1358712 6.3197929)
Galle,Galle,"SHANTHA COMMUNICATION, BUS STAND, AVTIHTHTEWA",SHANTHA COMMUNICATION,POINT (78.14616869999999 8.8050315)
Galle,Galle,"A.B.R.World, No.57 Thakkiya Rd Thalapitiya, Galle",A.B.R.World,POINT (80.2249089 6.0404254)
Galle,Galle,"J.D.K COMMUNICATION, 394/A,WAKWELLA ROAD,KALEGANA, GALLE",J.D.K COMMUNICATION,POINT (80.2039611 6.058743799999999)
Galle,Galle,"CHAMARA STORES , THALAWA, WADURAMBA",CHAMARA STORES ,POINT (80.29110709999999 6.1387303)
Galle,Galle,"P.L.D AIRANI , WACKWELLA RD,HAPUGALA, GALLE",P.L.D AIRANI ,POINT (80.19838159999999 6.070075399999999)
Galle,Galle,"Dilini Com, Batapola Rd, Kahawa",Dilini Com,POINT (80.1167464 6.2256088)
Galle,Galle,"A.R.Computers, Ginimellagaha Junction, Ginimellagaha",A.R.Computers,POINT (79.97844909999999 6.4548682)
Galle,Galle,"ISHAN GRAPHIC, GULUGAHA JUNTION,GONAPINUWALA, GALLE",ISHAN GRAPHIC,POINT (80.1399648 6.1498487)
Galle,Galle,"MOBILE TEC, BADDEGAMA RD, GONAPINUWALA, na",MOBILE TEC,POINT (80.1749267 6.1632895)
Galle,Galle,"Surek Photo, Pollewwa, Batapola",Surek Photo,POINT (80.1146308 6.224787399999999)
Galle,Galle,"She And He Mobile Shop, No.399a Wackwella Road, Julgaha",She And He Mobile Shop,POINT (80.2153766 6.0333605)
Galle,Galle,"ISURU VIDEO, KAILATHTHA,, URAGASMAHANDIYA",ISURU VIDEO,POINT (79.934146 6.844468)
Galle,Galle,"Ananda Grocery, No.125 Bandaranayake Place, Galle",Ananda Grocery,POINT (79.8581909 6.8837988)
Galle,Galle,"Varuna Phone Shop, N/A, N/A",Varuna Phone Shop,POINT (80.2287702 6.0410737)
Galle,Galle,"Sanhinda Book Shop, Thalagaha Junction, Akmeemana",Sanhinda Book Shop,POINT (80.2485626 6.077833399999999)
Galle,Galle,"D.U.T. Communication, Overkanda, Rathgama",D.U.T. Communication,POINT (80.136588 6.0942707)
Galle,Galle,"SRIPALE CENTER, UDUVILA , BATAPOLA",SRIPALE CENTER,POINT (80.11806539999999 6.2238404)
Galle,Habaraduwa,"Sala Phone Shop, Dikkumbura Road, Habaraduwa",Sala Phone Shop,POINT (80.3083125 5.9949375)
Galle,Habaraduwa,"Sinali Enterprises, No.12 Galle Road, Habaraduwa",Sinali Enterprises,POINT (80.3057896 5.9937983)
Galle,Habaraduwa,"Ranjan Stores, Kadapilawatta, Habaraduwa",Ranjan Stores,POINT (79.8652142 6.9167258)
Galle,Hikkaduwa,"C Net, Hikkaduwa East Gonapinuwala, Hikkaduwa",C Net,POINT (80.10089929999999 6.1314898)
Galle,Hikkaduwa,"Adara Graphics And Communication, No.9a Baddegama Road, Hikkaduwa",Adara Graphics And Communication,POINT (80.1009203 6.140715699999999)
Galle,Hikkaduwa,"Little Hut Communication, Aluthwala, Hikkaduwa",Little Hut Communication,POINT (80.1390061 6.1823409)
Galle,Hikkaduwa,"NAVORA COMMUNICATION, BADDEGAMA RD, HIKKADUWA",NAVORA COMMUNICATION,POINT (80.10116579999999 6.1338253)
Galle,Hikkaduwa,"Tour SL Tours, Galle Rd,Narigama, hikkaduwa",Tour SL Tours,POINT (80.1109598 6.1242652)
Galle,Hikkaduwa,"Nilu Communication, No.7 Galle Road, Hikkaduwa",Nilu Communication,POINT (80.1090279 6.1252965)
Galle,Hikkaduwa,"Digital Cellular, No.286 Galle Road, Hikkaduwa",Digital Cellular,POINT (80.10150329999999 6.1317032)
Galle,Hiniduma,"HINIDUMA VIDEO, NUGAGALA JUNTION, HINIDUMA",HINIDUMA VIDEO,POINT (80.33964739999999 6.296244799999999)
Galle,Hiniduma,"Kosala Cycle, Hiniduma North, Hiniduma",Kosala Cycle,POINT (80.31657610000001 6.314563499999999)
Galle,Karapitiya,"WELLFAIRE COMMUNICATION, KARAPITIYA, GALLE",WELLFAIRE COMMUNICATION,POINT (80.2250421 6.0671101)
Galle,Kosgoda,"Shan Grocery, Galle Road Duwemodara, Kosgoda",Shan Grocery,POINT (80.0230741 6.3467525)
Galle,Thalpe,"Nishantha Phone Shop, Wellethota Road, Thalpe",Nishantha Phone Shop,POINT (80.28156509999999 5.9975934)
Galle,Thalpe,"Wickrama Stores, Wellethota Road, Thalpe",Wickrama Stores,POINT (80.2819853 5.9997469)
Galle,Udugama,"Pradeep Communication, Opposite The School, Udugama",Pradeep Communication,POINT (80.1818909 6.6461421)
Galle,Udugama,"Dayananda Stores, Bar Junction, Udugama",Dayananda Stores,POINT (80.33514009999999 6.201796)
Galle,Udugama,"Chathura Communication, Galle Road, Udugama South",Chathura Communication,POINT (80.342393 6.1852718)
Galle,Wanduramba,"SONATA COMMUNICATION, MAPALAGAMA RD, WANDURAMBA",SONATA COMMUNICATION,POINT (80.2547374 6.134818099999999)
Gampaha,Gampaha,"SAKU CELL DREEMS,  UDGAMPALA JUNCTION, GAMPAHA",SAKU CELL DREEMS,POINT (80.01137480000001 7.087978199999999)
Gampaha,Gampaha,"Eshan Book Shop Communication, No.146/A Yakkala Road, Gampaha",Eshan Book Shop Communication,POINT (79.9939468 7.092771699999999)
Gampaha,Gampaha,"KD HOUSE COMMUNICATION, 102 B, COLOMBO RD, GAMPAHA",KD HOUSE COMMUNICATION,POINT (79.99574009999999 7.0911073)
Gampaha,Gampaha,"SJS TECHNoLOGIES, 142/D, KANDY ROAD, MIRISWATTA, GAMPAHA",SJS TECHNoLOGIES,POINT (80.0162795 7.073305599999999)
Gampaha,Gampaha,"Vibrations Communication, Main Street, Ganemulla",Vibrations Communication,POINT (79.9607183 7.0664609)
Gampaha,Gampaha,"Saseka Communication And Watch Centre, No.62 Colombo Rd, Gampaha",Saseka Communication And Watch Centre,POINT (79.9949075 7.091444)
Gampaha,Gampaha,"DINITHI DISTRIYBUTORS, 125/E MUDUNPITHAKANDA RADAWANA, KIRINDIWELA",DINITHI DISTRIYBUTORS,POINT (80.09019259999999 7.0325501)
Gampaha,Gampaha,"SANASA BANK, 1040, KUMBURUGODA, BEMMULLA",SANASA BANK,POINT (79.9950449 7.0933189)
Gampaha,Gampaha,"Rangana Cellular, No.144 Negombo Rd, Veyangoda",Rangana Cellular,POINT (80.0574158 7.1548674)
Gampaha,Gampaha,"Sunwin Trading, Walgammulla Road, Rukgahawila",Sunwin Trading,POINT (79.892489 6.8765377)
Gampaha,Gampaha,"C.Net Computers, No.162/C Nittambuwa Road Pattalagedara, Veyangoda",C.Net Computers,POINT (80.0693105 7.151215799999999)
Gampaha,Gampaha,"CHAMEE PHONE SHOP, ATTANAGALLA RD,WATHUPITIWALA, WATHUPITIWAL",CHAMEE PHONE SHOP,POINT (80.11119649999999 7.1253896)
Gampaha,Gampaha,"Dholayan Tex And Communication, No.146/A Main Street, Kahatowita",Dholayan Tex And Communication,POINT (80.111746 7.095324)
Gampaha,Gampaha,"KUMARASINGHE BOOK SHOP, 397,WALIPITIWA, GANEMULLA",KUMARASINGHE BOOK SHOP,POINT (79.95691359999999 7.039191300000001)
Gampaha,Gampaha,"Hello Com, Oruthota Road, Gampaha, Gampaha",Hello Com,POINT (79.9867591 7.082963299999999)
Gampaha,Gampaha,"OMEEKA MOBILE, NO 11 KANDY ROAD, YAKKAIA, YAKKALA",OMEEKA MOBILE,POINT (80.0343185 7.084981399999999)
Gampaha,Gampaha,"ANURADHA COMMUNICATION, 151/14,KALUWALA JUNCTION,GANEMULLA",ANURADHA COMMUNICATION,POINT (79.97545269999999 7.0740902)
Gampaha,Gampaha,"SMART PHONE PLANENT, NO 372 KADAWATHA ROAD, .GANEMULLA, KADAWATHA ROAD",SMART PHONE PLANENT,POINT (79.9614498 7.0681381)
Gampaha,Gampaha,"Photo Guide, No.388 Kadawatha Road, Ganemulla",Photo Guide,POINT (79.9612075 7.067950799999999)
Gampaha,Ja ela,"S.M.Communication, 230-B, Batagama North, BatagamaJa Ela",S.M.Communication,POINT (79.91662199999999 7.0536403)
Gampaha,Kadawatha,"EXCELENT COMM, No.372/B2,KANDY RD,MAHARA, KADAWATHA",EXCELENT COMM,POINT (79.91517739999999 6.9706702)
Gampaha,Kadawatha,"ASIRI COMMUNICATION, No.207/2,9TH MILE POST,MAHARA, KADAWATHA",ASIRI COMMUNICATION,POINT (79.9453206 6.9944774)
Gampaha,Kadawatha,"GOLDEN A.P.O. & COMM, NIKADO CITY,KANDY RD, KADAWATHA",GOLDEN A.P.O. & COMM,POINT (79.9568542 7.005094199999999)
Gampaha,Katunayaka,"Nimali Communication, Ewariwatta, Katunayaka",Nimali Communication,POINT (79.8650871 7.1826544)
Gampaha,Kelaniya,"SAMANALA BOOK SHOP & COMM, No.497/A/1,ERIYAWETIYA RD, KELANIYA",SAMANALA BOOK SHOP & COMM,POINT (79.92863200000001 6.979513099999999)
Gampaha,Kiribathgoda,"MOBILE CELLULAR CITY, No:329,MAKOLA ROAD,THAMBILLGASMULLA JUNCTION, KIRIBATHGODA",MOBILE CELLULAR CITY,POINT (79.9279038 6.977646099999999)
Gampaha,Kirindiwela,"Kirindiwela Communication, Walgammulla Road, Kirindiwela",Kirindiwela Communication,POINT (80.12989759999999 7.0432317)
Gampaha,kocchikade,"Hameed Communication, No.176 Poruthota, Kochchikade",Hameed Communication,POINT (79.8448418 7.262289000000001)
Gampaha,kocchikade,"Diligent Communication, Church Road, Kochchikade",Diligent Communication,POINT (79.85869049999999 7.265313399999999)
Gampaha,Minuwangoda,"MALMI COMMUNICATION, 150,NEGOMBO RD,BORAGODAWATTA,MINUWANGODA",MALMI COMMUNICATION,POINT (79.8931382 7.0642801)
Gampaha,Minuwangoda,"SENAKA TELE SHOP, NO.34,ARAUND RD, DIULAPITIYA",SENAKA TELE SHOP,POINT (80.0191469 7.224236899999999)
Gampaha,Mirigama,"Mandakini Communication, Thalakolayaya, Meerigama",Mandakini Communication,POINT (80.1302748 7.248230700000001)
Gampaha,Mirigama,"PRABA COMMUNICATIONoN, MEERIGAMA RD, KOTADENIYAWA",PRABA COMMUNICATIONoN,POINT (80.1167652 7.2518058)
Gampaha,Mirigama,"DAYASEELA COMMUNICATION, 35,KANDALAMA,MIRIGAMA., MIRIGAMA",DAYASEELA COMMUNICATION,POINT (80.1368667 7.270834799999999)
Gampaha,Negambo,"CHAMARA CAFE, 05,MIRIHAMA RD, NEGAMBO",CHAMARA CAFE,POINT (79.84734349999999 7.2145134)
Gampaha,Negambo,"Best Phone Cafe, No 42/A , KIMBULAPITIYA ROAD, NEGAMBO",Best Phone Cafe,POINT (79.8487401 6.918108999999999)
Gampaha,Negambo,"NEW BASIYAWATTA BOOK SHOP, 336/6,MASA PITIPANA, NEGOMBO",NEW BASIYAWATTA BOOK SHOP,POINT (79.8401434 7.2116874)
Gampaha,Nittambuwa,"Sitasi Teleshop, Kittammahara, Nittambuwa",Sitasi Teleshop,POINT (80.0962061 7.1460957)
Gampaha,Nittambuwa,"Ananda Book Shop, Wathupitiwala, Nittambuwa",Ananda Book Shop,POINT (80.1115712 7.1248114)
Gampaha,Nittambuwa,"DINU CELLULAR AND COM CENTER, EPZ ROAD, WATHUPITIWALA, NITTAMBUWA",DINU CELLULAR AND COM CENTER,POINT (80.1081045 7.1231117)
Gampaha,Nittambuwa,"Dilini Communication, No.491b Kandy Road, Nittambuwa",Dilini Communication,POINT (79.9965905 7.092556399999999)
Gampaha,Nittambuwa,"Shishilasa Communication, No.424 Negombo Road, Nittambuwa",Shishilasa Communication,POINT (80.0949622 7.143777)
Gampaha,Nittambuwa,"TELECITY MOBILES, No:1,BUS STAND,NITTAMBUWA, NITTAMBUWA",TELECITY MOBILES,POINT (80.09645619999999 7.1406854)
Gampaha,Nittambuwa,"Real Phone Shop, No.601 Colombo Road, Nittambuwa",Real Phone Shop,POINT (80.094522 7.1415906)
Gampaha,Nittambuwa,"Vivid Type Setting, Ranpokunagama, Nittambuwa",Vivid Type Setting,POINT (80.1060408 7.130941000000001)
Gampaha,Nittambuwa,"NEW JAYANTHI STORES, 110,KANDY RD,KONGASDIYA, NITTAMBUWA",NEW JAYANTHI STORES,POINT (80.1034566 7.1524598)
Gampaha,Nittambuwa,"WORLD WIDE COMPUTER & MOBILE PHONE, 423, VEYANGODA RD, NITTAMBUWA",WORLD WIDE COMPUTER & MOBILE PHONE,POINT (80.0948669 7.1437654)
Gampaha,Nittambuwa,"DISNA BOOK SHOP, 650, ATTANAGALLA RD,, NITTAMBUWA",DISNA BOOK SHOP,POINT (80.1005529 7.1307934)
Gampaha,Nittambuwa,"Sagara Communication, No.272 C Negombo Road, Nittambuwa",Sagara Communication,POINT (79.8507987 7.2063801)
Gampaha,Pamunugama,"Anne Communication, No.20 Bopitiya Junction Bopitiya, Pamunugama",Anne Communication,POINT (79.85932249999999 7.0788987)
Gampaha,Pasyala,"Ideal Communication, No.184 Kandy Road, Pasyala",Ideal Communication,POINT (80.12414989999999 7.1685253)
Gampaha,Pugoda,"GANGA BOOK SHOP, 344/1,PUGODA RD, MANDAWALA",GANGA BOOK SHOP,POINT (80.0961531 7.000578300000001)
Gampaha,Pugoda,"NAYOMI COM, MAIN STREET , PUGODA",NAYOMI COM,POINT (80.0588832 6.9500131)
Gampaha,Pugoda,"Unilanka A.P.O., No.144 Main Street, Pugoda",Unilanka A.P.O.,POINT (80.11960280000001 6.9753985)
Gampaha,Ragama,"LUCKY COMM CENTER, 646/B, THEWATTA RD, RAGAMA",LUCKY COMM CENTER,POINT (79.9217376 7.0304552)
Gampaha,Ragama,"Sandali Communication, No.800 Magammana, Ragama",Sandali Communication,POINT (79.7999348 7.486975699999999)
Gampaha,Ragama,"Samagi Communication, No.758/A Negombo Road Mattumagala, Ragama",Samagi Communication,POINT (79.89934360000001 7.021228000000001)
Gampaha,seeduwa,"Sd Studio And Communication, No.610d Liyanagemulla, Seeduwa",Sd Studio And Communication,POINT (79.8725408 7.1509399)
Gampaha,seeduwa,"Tele One Com, No.319 Kotugoda Road, Seeduwa",Tele One Com,POINT (79.87412599999999 7.144237599999999)
Gampaha,seeduwa,"TIYOSHI COM, 202/A1,BASE LINE ROAD, AMANDOLUWA,SEEDUWA",TIYOSHI COM,POINT (79.88410309999999 7.146047599999999)
Gampaha,seeduwa,"Shamaly Stores, No.147b Kebellagodawela Alawathupitiya, Seeduwa",Shamaly Stores,POINT (79.87599329999999 7.133221799999999)
Gampaha,seeduwa,"Sky Com, No.96 Kotugoda Road, Seeduwa",Sky Com,POINT (79.88196309999999 7.131685399999999)
Gampaha,seeduwa,"Masha Communication, No.301 Kotugoda Road, Seeduwa",Masha Communication,POINT (79.88213519999999 7.1319994)
Gampaha,Wattala,"Trs Netcafe, No.55d Elakanda Road Hendala, Wattala",Trs Netcafe,POINT (79.8784151 6.995450200000001)
Gampaha,Wattala,"Nandana Traders, No.455 Negombo Road, Wattala",Nandana Traders,POINT (79.8926149 6.9901493)
Gampaha,Wattala,"E Com Communication, No.16 Welikadamulla Road Mabola, Wattala",E Com Communication,POINT (79.88707540000001 6.996803799999999)
Gampaha,Wattala,"Nisha Communication, No.23 Hendala, Wattala",Nisha Communication,POINT (79.8753507 6.994657399999999)
Gampaha,Wattala,"Wedage Com, Kerawalapitiya Rd Hendala, Wattala",Wedage Com,POINT (79.88731129999999 6.996572)
Hambanthota,Angunukolapelessa,"Manaram Communication, Hungama Road, Angunukolapelessa",Manaram Communication,POINT (80.9031172 6.165568899999999)
Hambanthota,Angunukolapelessa,"Ranaweera Communuication, Hungama Road, Angunukolapelessa",Ranaweera Communuication,POINT (80.89867610000002 6.166125)
Hambanthota,Angunukolapelessa,"Dahanayaka Electronics, Hungama Road, Angunukolapelessa",Dahanayaka Electronics,POINT (80.89892789999999 6.1660319)
Hambanthota,Angunukolapelessa,"Ishara Compiuter Shop, no 33 Benkama, Angunakolapalssa",Ishara Compiuter Shop,POINT (79.857941 6.8968113)
Hambanthota,Ambalanthota,"HANSANI HOTEL, MAMADALA, AMBALANTHOTA",HANSANI HOTEL,POINT (80.92424419999999 6.1056794)
Hambanthota,Ambalanthota,"ISURU AGENCIES, 69,MAIN ST,AMBALANTOTA",ISURU AGENCIES,POINT (81.02437479999999 6.1225152)
Hambanthota,Ambalanthota,"SILVER JEWELLERS, 39,MAIN STREET, AMBALANTHOTA",SILVER JEWELLERS,POINT (79.85400109999999 6.9391151)
Hambanthota,Beliatta,"A.M.S.Mobile Phone Shop, No.07 1st Floor New Shopping Complex, Beliatta",A.M.S.Mobile Phone Shop,POINT (80.73498000000001 6.047829)
Hambanthota,Beliatta,"Cell Way The Phone Shop (pvt)ltd, NEW Bus Stand, Beliatta",Cell Way The Phone Shop (pvt)ltd,POINT (79.99616979999999 7.092600999999999)
Hambanthota,Hambanthota,"Shawindu Communication, Baddawala Road, HAMBANTHOTA",Shawindu Communication,POINT (81.1263189 6.1324511)
Hambanthota,Hambanthota,"Wanniarachchi Traders, No.64 Tangalle Rd, Hambantota",Wanniarachchi Traders,POINT (81.11888809999999 6.1245543)
Hambanthota,Hambanthota,"Hambanthota Agency, No.64 Bazaar Street, Hambanthota",Hambanthota Agency,POINT (81.124816 6.125432)
Hambanthota,Hambanthota,"Dammi Communication, Urubokka Road, Katuwana",Dammi Communication,POINT (80.60542270000001 6.323059)
Hambanthota,Hambanthota,"Hiru Communication, Middaniya Road, Katuwan",Hiru Communication,POINT (80.6914366 6.2648239)
Hambanthota,Hambanthota,"Nenasala, Welangahawala Junction, Barawakumbuka",Nenasala,POINT (79.988187 7.2286314)
Hambanthota,HUNGAMA,"GAJANAYAKA COMMUNICATION, 22,MAIN STREET, HUNGAMA",GAJANAYAKA COMMUNICATION,POINT (79.85018409999999 6.9369983)
Hambanthota,Middeniya,"Abeywarna Phone Shop, Panamura Road, Middeniya",Abeywarna Phone Shop,POINT (80.7643631 6.251900099999999)
Hambanthota,Middeniya,"Ruhunu Mobile The Phone Shop, Walasmulla Road, Middeniya",Ruhunu Mobile The Phone Shop,POINT (80.763649 6.2511236)
Hambanthota,Sewanagala,"Donald Stores, Mahagama Colony, Sewanagala",Donald Stores,POINT (80.9431453 6.3186609)
Hambanthota,Sooriyawewa,"Olu Communication, No.41 Main Street, Sooriyawewa",Olu Communication,POINT (79.8533577 6.921549400000001)
Hambanthota,Sooriyawewa,"Udarata Stores, No.88-1 Near The Bus Stand, Sooriyawewa",Udarata Stores,POINT (81.0022848 6.305901700000001)
Hambanthota,Sooriyawewa,"WIN-TEC COMPNTERS AND PHON SHOP, NO43 MAIN STREET, SOORIYAWEWA",WIN-TEC COMPNTERS AND PHON SHOP,POINT (79.8513626 6.9378833)
Hambanthota,Sooriyawewa,"Thisara Communication, Fourway Junction Viharagala, Sooriyawewa",Thisara Communication,POINT (79.96415689999999 6.842120400000001)
Hambanthota,Sooriyawewa,"Induwara Stores, No 39, Main Street, Sooriyawewa",Induwara Stores,POINT (80.5157019 5.9390198)
Hambanthota,Tangalle,"Isuru Communication, Anna Pitiya Road, Tangalle",Isuru Communication,POINT (80.7946256 6.0275168)
Hambanthota,Tangalle,"Dinisuru Print Shop & Communication, 53, Beliatta road, Tangalle",Dinisuru Print Shop & Communication,POINT (80.7821823 6.0367145)
Hambanthota,Tangalle,"Wijesinghe Agency Post Office, Polommaruwa, Tangalle",Wijesinghe Agency Post Office,POINT (80.796386 6.0230044)
Hambanthota,Tangalle,"Selmin, No.44, Beliatta Road, Tangalle",Selmin,POINT (80.73384159999999 6.0504335)
Hambanthota,Tissamaharama,"CHAT COMM, MATARA ROAD, THISSAMAHARAMA",CHAT COMM,POINT (81.28640039999999 6.2776894)
Hambanthota,Tissamaharama,"H.M.C. Holdings (pvt) Ltd, Main Street , Tissamaharama",H.M.C. Holdings (pvt) Ltd,POINT (79.8890802 7.1705048)
Hambanthota,Tissamaharama,"Lasantha Hardware, Hambantota Rd Gajasiripura, Thissamaharama",Lasantha Hardware,POINT (81.2630037 6.2689298)
Hambanthota,Tissamaharama,"Lucky Shoe Palace, No.25 Main Street, Thissamaharama",Lucky Shoe Palace,POINT (81.2887688 6.277070999999999)
Hambanthota,Walasmulla,"A.H.T.Communication, No.29 Pallekanda Road, Walasmulla",A.H.T.Communication,POINT (80.69727639999999 6.1577614)
Hambanthota,Walasmulla,"Nihal Cafe, No.7 Middeniya Road, Walasmulla",Nihal Cafe,POINT (80.69775039999999 6.1557628)
Hambanthota,Weerakatiya,"SHANNoN AUDIO & VIDEO, TANGALLE RD, WEERAKETIYA",SHANNoN AUDIO & VIDEO,POINT (80.76365969999999 6.146646199999999)
Jaffna,Chankanai,"Thirumagal Communication Travels, MAIN STREET, CHANKANAI, JAFFNA",Thirumagal Communication Travels,POINT (79.969199 9.748554)
Jaffna,Chavakachcheri,"MADDUVILL NET CAFE, MADDUVIL NoRTH, CHAVAKACHCHERI",MADDUVILL NET CAFE,POINT (80.16104439999999 9.659603299999999)
Jaffna,Jaffna,"ANANDA PHARMACY, OORANAI,VALVETTITHURAI, JAFFNA",ANANDA PHARMACY,POINT (80.0118607 9.690695399999999)
Jaffna,Jaffna,"Selin Communication, Erlalai West, Chunnakam",Selin Communication,POINT (79.8533577 6.921549400000001)
Jaffna,Jaffna,"CELL CITY, No.187  k.k.s. road, Jaffna",CELL CITY,POINT (80.0091468 9.667019399999999)
Jaffna,Jaffna,"Vadival Watch Works, 25/15 Jubilee Bazaar Power House RD, jaffna",Vadival Watch Works,POINT (80.0152231 9.668713700000001)
Jaffna,Jaffna,"K.S.M.Communication, No.146 New Market, Jaffna",K.S.M.Communication,POINT (80.0200366 9.6844517)
Jaffna,Jaffna,"ABI NET CAFE, NO 143,MAIN STREET NELLIYADI, Jaffna",ABI NET CAFE,POINT (80.197935 9.799723)
Jaffna,Jaffna,"Pan City Com, Sithankeny Road, Pandaytheruppu, Jaffna",Pan City Com,POINT (80.0144227 9.665109899999999)
Jaffna,Jaffna,"SUTHA COMMUNICATION, SITHANKERNY JUNCTION, SITHANKERNY, Jaffna",SUTHA COMMUNICATION,POINT (79.96199 9.7538629)
Jaffna,Jaffna,"Kugans Electricals, Vaddu East, Sithankerny",Kugans Electricals,POINT (79.85625379999999 6.891932)
Jaffna,Jaffna,"Sun Rise Studio & Stationary, Chunnakam",Sun Rise Studio & Stationary,POINT (80.1226805 6.1127968)
Jaffna,Kayts,"Kayts Phone Shop, Oluvil Road , Kayts",Kayts Phone Shop,POINT (79.8632016 9.7012657)
Jaffna,Kopay,"Kajamugan Com, No.15 Kopay Junction, Kopay",Kajamugan Com,POINT (80.06913349999999 9.7043108)
Jaffna,Point Pedro,"Pragash Electronics, Bus Stand, Point Pedro",Pragash Electronics,POINT (80.2364431 9.8247214)
Jaffna,Point Pedro,"Rajan Cycle Works, Bus Stand, Point Pedro",Rajan Cycle Works,POINT (80.236695 9.824679999999999)
Kalutara,"Agalawatta,","Tharaka Tailors, No.207 Kithulgoda, Agalawatta",Tharaka Tailors,POINT (80.1763478 6.512537399999999)
Kalutara,Aluthgama,"Express Video, Aluthgama Bus Stand, Galle Road, Aluthgama",Express Video,POINT (79.99837789999999 6.4319881)
Kalutara,Aluthgama,"Thirasara Book Shop, No.4, Station Rd, Aluthgama",Thirasara Book Shop,POINT (79.99947809999999 6.431950899999999)
Kalutara,Aluthgama,"D P C Agency Post Office, No.268a Galle Road, Aluthgama",D P C Agency Post Office,POINT (80.00006429999999 6.4310892)
Kalutara,Aluthgama,"See Madura Book Shop, No.6, douglas gunawardene mawatha, Aluthgama",See Madura Book Shop,POINT (79.886259 6.758928)
Kalutara,Aluthgama,"Fun Time Call Center, No.55 Mathugama Road, Aluthgama",Fun Time Call Center,POINT (80.0029175 6.4313769)
Kalutara,Aluthgama,"Oasis Center, No.215 Galle Road, Aluthgama",Oasis Center,POINT (79.9988764 6.4314892)
Kalutara,Aluthgama,"Aqua Life And Comm, No.277 Galle Road, Aluthgama",Aqua Life And Comm,POINT (79.9982572 6.432593499999999)
Kalutara,Aluthgama,"MULTY CHOICE, 12/C, STATION RD, ALUTHGAMA",MULTY CHOICE,POINT (79.9988815 6.4317721)
Kalutara,Aluthgama,"Jayamini Book Shop, No.224, Kandavihara Road, Kaluwammodara, Aluthgama",Jayamini Book Shop,POINT (79.999099 6.4332452)
Kalutara,Aluthgama,"Smart Mobile, No.89, Galle Rd, Aluthgama",Smart Mobile,POINT (79.99582839999999 6.4371152)
Kalutara,Aluthgama,"H.S.Communication, 379/A,Bamunumulla,Atulugama",H.S.Communication,POINT (79.996315 6.7048537)
Kalutara,Baduraliya,"New Liyanaarachchi Communication And Grocery, No.474 Rathnapura Road, Baduraliya",New Liyanaarachchi Communication And Grocery,POINT (80.2343157 6.5157497)
Kalutara,Baduraliya,"Nadeesha Communication, No.09 Public Super Market Rathnapura Road, Baduraliya",Nadeesha Communication,POINT (80.23251639999999 6.5166609)
Kalutara,Baduraliya,"Sanadi Book Shop, Rathnapura Road, Baduraliya",Sanadi Book Shop,POINT (80.23256689999999 6.5166208)
Kalutara,Baduraliya,"VICTORY COMMUNICATION, LATHPADURA, BADURALIYA",VICTORY COMMUNICATION,POINT (81.0572732 6.988162)
Kalutara,Baduraliya,"Sahan Book Shop And Communication, No.28 Rathnapura Road, Baduraliya",Sahan Book Shop And Communication,POINT (80.2260077 6.5160679)
Kalutara,Baduraliya,"Devasee Book Shop And Communication, Rathnapura Road, Baduraliya",Devasee Book Shop And Communication,POINT (80.23176049999999 6.516988899999999)
Kalutara,Baduraliya,"Kumudu Book Shop, Rathnapura Road, Baduraliya",Kumudu Book Shop,POINT (80.23256689999999 6.5166208)
Kalutara,Baduraliya,"Sanadi Book Shop, Rathnapura Road , Baduraliya, na",Sanadi Book Shop,POINT (80.23256689999999 6.5166208)
Kalutara,Bandaragama,"Yasiru Communication And Book Shop, No.302/A, Bandaragama",Yasiru Communication And Book Shop,POINT (80.0152167 6.7217078)
Kalutara,Bandaragama,"Tharindu A.P.O., Kothalawala, Bandaragama",Tharindu A.P.O.,POINT (79.9906184 6.7109149)
Kalutara,Bandaragama,"Internet Cafe, Aluthgama Welmilla Junction, Bandaragama",Internet Cafe,POINT (79.88007109999999 6.930149)
Kalutara,Bandaragama,"Shashikala Communication And Book Shop, Gelanigama, Bandaragama",Shashikala Communication And Book Shop,POINT (80.0005488 6.718802699999999)
Kalutara,Bandaragama,"Nithma Phone Arcade, Market Avenue, Bandaragama",Nithma Phone Arcade,POINT (79.9896748 6.7142483)
Kalutara,Bandaragama,"Sayara Salon And Communication, Atulugama, Bandaragama",Sayara Salon And Communication,POINT (79.99638449999999 6.694441299999999)
Kalutara,Beruwala,"Celltrics, No.117/A, Galle Road, Beruwala",Celltrics,POINT (79.98315149999999 6.4763722)
Kalutara,Beruwala,"MH. lanka Commi., No.58, Mosque Rd, Beruwala",MH. lanka Commi.,POINT (79.9868048 6.4636912)
Kalutara,Beruwala,"Mobile Express Communication, No.126 Galle Road, Beruwala",Mobile Express Communication,POINT (79.9836552 6.4749487)
Kalutara,Beruwala,"Eropean Mobile, No.108 Galle Road, Beruwala",Eropean Mobile,POINT (79.986831 6.460038)
Kalutara,Beruwala,"Suba Video Centre And Communication, Ambepitiya, Beruwala",Suba Video Centre And Communication,POINT (79.98080890000001 6.4643155)
Kalutara,Beruwala,"More tel & Communication, No,123, Galle Rd, Beruwala",More tel & Communication,POINT (79.9831753 6.476299699999999)
Kalutara,Beruwala,"U Com Communication And Grocery, Ambalappola Road Marakkala Watta, Beruwala",U Com Communication And Grocery,POINT (79.9834779 6.4760545)
Kalutara,Beruwala,"Classic Mobile, No.135/A, Galle Road, Beruwala",Classic Mobile,POINT (80.00081489999999 6.4116572)
Kalutara,Beruwala,"Finaz Music And Communication, No.24 Galle Road Hettimulla, Beruwala",Finaz Music And Communication,POINT (79.98654859999999 6.4511106)
Kalutara,Beruwala,"ST, ANTHONYS COMMUNICATION, 77/F, CUSTOM RD, BERUWALA",ST,POINT (79.9196879 6.968276599999999)
Kalutara,Beruwala,"FINE COMM, 83-A,AGENCY POST OFFICE,GALLE RD., BERUWALA",FINE COMM,POINT (80.21762210000001 6.033414199999999)
Kalutara,Beruwala,"Masha A Mosquito Net And Gift Items, No.239/A Galle Road Massala, Beruwala",Masha A Mosquito Net And Gift Items,POINT (79.98654669999999 6.451115)
Kalutara,Bulathsinhala,"Liyanage Communication, No.178 Egaloya, Bulathsinhala",Liyanage Communication,POINT (79.93994719999999 6.9735396)
Kalutara,Bulathsinhala,"Ruwan Printers, Egaloya, Bulathsinhala",Ruwan Printers,POINT (80.16168089999999 6.6798573)
Kalutara,Bulathsinhala,"Kalana Grocery And Communication, No.14, Bulathsinhala",Kalana Grocery And Communication,POINT (79.8672474 6.8596184)
Kalutara,Bulathsinhala,"Smart Phone Shop, 53, Athura , Bulathsinghala, na",Smart Phone Shop,POINT (79.89879379999999 6.8749655)
Kalutara,Bulathsinhala,"National Book Shop & Communication, Amaragedara , Bulathsinghala, Bulathsinghala",National Book Shop & Communication,POINT (80.17832990000001 6.648947799999999)
Kalutara,Bulathsinhala,"Sahan Vedio, Athura,Bulathsinghala",Sahan Vedio,POINT (80.1638755 6.679041)
Kalutara,Dodangoda,"RANAWEERA STORES, TUDUGALA, Dodangoda",RANAWEERA STORES,POINT (80.04750399999999 6.562742399999999)
Kalutara,Dodangoda,"Kothalawala Photo And Wedding Needs, Thudugala Junction, Dodangoda",Kothalawala Photo And Wedding Needs,POINT (80.0244929 6.5550206)
Kalutara,Horana,"Horana Oil Mart, No.143 Panadura Road, Horana",Horana Oil Mart,POINT (80.05901539999999 6.7176059)
Kalutara,Horana,"Sanduni Communication, No.193 Ratnapura Road, Horana",Sanduni Communication,POINT (80.21461140000001 6.937644)
Kalutara,Horana,"Serandib Communication, No.110 Rathnapura Road, Horana",Serandib Communication,POINT (80.06335199999999 6.7165629)
Kalutara,Horana,"Pradeepa Book Shop And Communication, No.571/A Panadura Road, Horana",Pradeepa Book Shop And Communication,POINT (80.0440864 6.721125499999999)
Kalutara,Horana,"Sun Video Center, No.44 Anguruwathota Road, Horana",Sun Video Center,POINT (80.06946719999999 6.7098764)
Kalutara,Horana,"MENIKE FOOD, No 52.KULUPONA.POKUNUWITA, HORANA",MENIKE FOOD,POINT (80.03930059999999 6.732124199999999)
Kalutara,Horana,"Premathilaka Stores, 10/138,Anguruwathota Road, Horana",Premathilaka Stores,POINT (80.0628753 6.7153338)
Kalutara,Horana,"Pubudu Phone Shop, Suderis Silva Road, Horana",Pubudu Phone Shop,POINT (80.0580925 6.7159304)
Kalutara,Horana,"Susara Agency Post Office, Munagamapura Junction, Horana",Susara Agency Post Office,POINT (80.0598818 6.696884)
Kalutara,Horana,"J.K.Phone, Panadura Road,Horana",J.K.Phone,POINT (80.05798229999999 6.718514799999999)
Kalutara,Horana,"Linej Communication, 185,Panadura road,Horana",Linej Communication,POINT (80.06335199999999 6.7165629)
Kalutara,Horana,"Ariyarathne Trading, No.63 Padukka Road, Horana",Ariyarathne Trading,POINT (80.05533919999999 6.722236)
Kalutara,Horana,"MATHISHA BOOK SHOP, 330/B, DOBAGODA, HORANA",MATHISHA BOOK SHOP,POINT (80.06252119999999 6.7112038)
Kalutara,Horana,"SHIHARA ELECTRONIC & ELECTRONIC, COLOMBO ROAD,POKUNUWITA, HORANA",SHIHARA ELECTRONIC & ELECTRONIC,POINT (80.0551431 6.720237)
Kalutara,Kalutara,"MEEDUM BOOK SHOP  &   VIDEO CENTER, UGGALGODA KALUTARA, NoRTH, Kalutara North",MEEDUM BOOK SHOP  &   VIDEO CENTER,POINT (79.95310069999999 6.6082914)
Kalutara,Kalutara,"Star Communication, No.374 Galle Road, Kalutara North",Star Communication,POINT (79.90758529999999 6.7098347)
Kalutara,Kalutara,"SaNokma Mobile And Book Shop, No.73a Galle Road, Kalutara North",SaNokma Mobile And Book Shop,POINT (79.9284289 6.6675666)
Kalutara,Kalutara,"SAMPATH TOYS & COMMUNICATION, No,287,GALLE ROAD, KALUTARA NoRTH",SAMPATH TOYS & COMMUNICATION,POINT (79.9618653 6.579875599999999)
Kalutara,Kalutara,"Abdullah Phone Shop, No.668, Galle Rd, Kalutara South",Abdullah Phone Shop,POINT (79.9620319 6.5805973)
Kalutara,Kalutara,"Sena Tele Call, No.C2 Supper Market, Kalutara South",Sena Tele Call,POINT (79.96072699999999 6.5825293)
Kalutara,Kalutara,"Dilakro Book Shop, No.900/B Galle Road Katukurunda, Kalutara",Dilakro Book Shop,POINT (79.96150659999999 6.581016699999999)
Kalutara,Kalutara,"Speed Dial Communication, No.441 Main Road, Kalutara South",Speed Dial Communication,POINT (79.9657454 6.5704768)
Kalutara,Kalutara,"Mobile Lee, No.34B, Station Rd, Kalutara",Mobile Lee,POINT (79.96701200000001 6.5602822)
Kalutara,Kalutara,"Star Communication, Station RdKalulara South",Star Communication,POINT (79.85096990000001 7.215993099999999)
Kalutara,Kalutara,"STUDIO PHOTO BOOK, NAGODA RD,KATUKURUNDA JUNCTION, KALUTARA",STUDIO PHOTO BOOK,POINT (79.9691491 6.561103999999999)
Kalutara,Kalutara,"M.S.Communication, No.638 Galle Road, Kalutara South",M.S.Communication,POINT (79.85176249999999 6.937959)
Kalutara,Kalutara,"Communication Centre, No.2a Nagoda Road Katukurunda, Kalutara",Communication Centre,POINT (79.98093679999999 6.561081600000001)
Kalutara,Kalutara,"Hitec Phone Shop And Communication, No.6 New Bus Stand, Kalutara South",Hitec Phone Shop And Communication,POINT (79.9620366 6.5805725)
Kalutara,Kalutara,"Sampath Communication, No.271, Old Road, Kalutara South",Sampath Communication,POINT (79.9618653 6.579875599999999)
Kalutara,Kalutara,"Gayan Trade Center, No.21 Kalutara Road Yala, Anguruwathota",Gayan Trade Center,POINT (79.9699054 6.561727599999999)
Kalutara,Kalutara,"DINANGA COMMUNICATION, HORANA ROAD,GALPATHA, KALUTARA",DINANGA COMMUNICATION,POINT (79.96890739999999 6.6198935)
Kalutara,Kalutara,"Pradeep Communication, No.316 Galle Road, Kalutara North",Pradeep Communication,POINT (79.965929 6.5698039)
Kalutara,Kalutara,"Tirota Enterprises, Malwatta Junction Uggalboda Junction, Kalutara North",Tirota Enterprises,POINT (79.8533577 6.921549400000001)
Kalutara,Kalutara,"Isuru Communication, Near The Haritha Uyana Batagoda, Galpatha",Isuru Communication,POINT (79.8533577 6.921549400000001)
Kalutara,Kalutara,"E Center, No.531a Kuda Aruggoda, Alubomulla",E Center,POINT (79.9574001 6.7144117)
Kalutara,Kalutara,"VISION GRHAPICS, NO;350 NANDUWA JUNTION,MORONTHUDUWA, WADDUWA",VISION GRHAPICS,POINT (79.97465509999999 6.6524299)
Kalutara,Kalutara,"Mega Communication And Book Shop, No.20 Kumbuka, Gonapola Junction",Mega Communication And Book Shop,POINT (80.0010432 6.7202141)
Kalutara,Kalutara,"Araliya Book Shop, Pahala Karannagoda, Warakagoda",Araliya Book Shop,POINT (80.09122649999999 6.6433291)
Kalutara,Kalutara,"Lakmal Communication And Cool Spot, Neboda Rd Opposite Police Station, Thebuwana",Lakmal Communication And Cool Spot,POINT (79.8533577 6.921549400000001)
Kalutara,Kalutara,"Mirror Studio And Communication, Bombuwala, Kalutara South",Mirror Studio And Communication,POINT (80.00494719999999 6.573845700000001)
Kalutara,Kalutara,"Studio Saman, Opposite Of Bus Stand Horana Rd, Neboda",Studio Saman,POINT (80.04938709999999 6.7266694)
Kalutara,Kalutara,"ARUNA COMMUNICATION, DELPAWATTA, MAHAGAMA,NEBODA",ARUNA COMMUNICATION,POINT (79.8992502 7.0182178)
Kalutara,Kalutara,"Laxman Digital Audio And Video Vision, No.72 Batuwita Road Olaboduwa, Gonapola",Laxman Digital Audio And Video Vision,POINT (80.04041049999999 6.747982100000001)
Kalutara,Kalutara,"Roshan Communication, No.04 Agalawatta Road, Polgampala",Roshan Communication,POINT (80.1146622 6.5228668)
Kalutara,Kalutara,"Effect Media, Kalawallawa Road, Govinna",Effect Media,POINT (79.927403 7.0589986)
Kalutara,Kalutara,"Jayawardhane Traders, Pelawatta",Jayawardhane Traders,POINT (79.93186829999999 6.901673499999999)
Kalutara,Kalutara,"Chamal Communication, Meegahathenna",Chamal Communication,POINT (80.19113489999999 6.4383002)
Kalutara,Kalutara,"G S Communication, Near The Old Police Galketimulla, Dodangoda",G S Communication,POINT (80.0358423 6.5438272)
Kalutara,Kalutara,"Sasidu Book Shop, Aluthpara Handiya, Palathota, Kaluthara",Sasidu Book Shop,POINT (79.96131869999999 6.5839775)
Kalutara,Kalutara,"Sandamini Communication, Kithulawa, Kaluthara South",Sandamini Communication,POINT (79.98846329999999 6.5979491)
Kalutara,Kalutara,"Dilshan Stores, Near the gorund, Kalamulla,, Kaluthara",Dilshan Stores,POINT (79.99772380000002 7.0911523)
Kalutara,Kalutara,"Rathna Record Bar, Galmaththa, Walagedara, Walagedara",Rathna Record Bar,POINT (79.9260072 6.8457479)
Kalutara,Kalutara,"K And K Graphic Design, No.140 Egaloya, Bulathsinhala",K And K Graphic Design,POINT (80.1623587 6.6794353)
Kalutara,Matugama,"Averest Company, No.212 Aluthgama Road, Mathugama",Averest Company,POINT (80.0239157 6.4508997)
Kalutara,Matugama,"New Star Tex And Communication, No.14 Kalutara Road, Mathugama",New Star Tex And Communication,POINT (80.11387529999999 6.5229015)
Kalutara,Matugama,"Madya Pvt Limited, No.37 Aluthgama Road, Mathugama",Madya Pvt Limited,POINT (80.0149581 6.4414783)
Kalutara,Matugama,"C.S.R.Enterprises, No.5 Kalutara Road, Mathugama",C.S.R.Enterprises,POINT (80.1140444 6.5228363)
Kalutara,Matugama,"Buddhika Video And Book Shop, No.367 Kalutara Road Welimanana, Mathugama",Buddhika Video And Book Shop,POINT (80.11715459999999 6.521916300000001)
Kalutara,Panadura,"Star Link Communication, No.112,D S Senanayaka Mawatha, PANADURA",Star Link Communication,POINT (79.90681839999999 6.7138544)
Kalutara,Panadura,"M S A Communication, Bekkigama Road Walana, Panadura",M S A Communication,POINT (79.9038377 6.7361789)
Kalutara,Panadura,"Cell Comm GSM, 438,Main Street , Panadura",Cell Comm GSM,POINT (79.9061615 6.712808799999999)
Kalutara,Panadura,"Senki Communication, No.332/A Galle Road Gorakapola, Panadura",Senki Communication,POINT (79.9038377 6.7361789)
Kalutara,Panadura,"SADALI ENTERPRISE, 73,SARIKKAMULLA,KESELWATTA, PANADURA",SADALI ENTERPRISE,POINT (79.90832809999999 6.748935100000001)
Kalutara,Panadura,"Harindra Book Shop, No.11 Yonaka Mawatha Keselwatta, Panadura",Harindra Book Shop,POINT (79.9006234 6.7489155)
Kalutara,Panadura,"CEEL CORNER, No,14,BUS STAND, PANADURA",CEEL CORNER,POINT (79.90798819999999 6.7144042)
Kalutara,Panadura,"Cell Tec 2, No.26/F Moronthuduwa Road, Panadura",Cell Tec 2,POINT (79.95507379999999 6.6536116)
Kalutara,Panadura,"Sunil Time Centre, No.5 Sagara Mawatha, Panadura",Sunil Time Centre,POINT (79.90487299999999 6.712341599999999)
Kalutara,Panadura,"Kavindu Communication, No.59 Modarawila Road Morawinna, Panadura",Kavindu Communication,POINT (79.92359309999999 6.7034561)
Kalutara,Panadura,"Salgadu Grocery, No.805 Galle Road Nalluruwa, Panadura",Salgadu Grocery,POINT (79.8533577 6.921549400000001)
Kalutara,Panadura,"I Communication, No.500 Galle Rd, Panadura",I Communication,POINT (79.8838614 6.7814785)
Kalutara,Panadura,"Spider Creations, No.7 Cyril Janz Mw, Panadura",Spider Creations,POINT (79.9133351 6.7223399)
Kalutara,Panadura,"FLASH COMM, 310/A,GALLE ROAD, PANADURA",FLASH COMM,POINT (79.8844709 6.7841606)
Kalutara,Panadura,"Jamiya Book Shop, No.10/C Wattalpola Road Henamulla, Panadura",Jamiya Book Shop,POINT (79.90140959999999 6.748821500000001)
Kalutara,Panadura,"VIJAYA SALE CENTER, 379/H, NILMINI, WEWAGODAHENA, KIRIBERIYA, PANADURA",VIJAYA SALE CENTER,POINT (79.9399889 6.7249693)
Kalutara,Panadura,"Chula Video And Communication, No.100 Hirana Road Thanthirimulla, Panadura",Chula Video And Communication,POINT (79.91850409999999 6.7262058)
Kalutara,Panadura,"Thenuwara Hotel, 58/1,Hatharaman Handiya,Galthude, Panadura",Thenuwara Hotel,POINT (79.906137 6.70343)
Kalutara,Panadura,"3G Phone Center, Panadura Road, Ingiriya",3G Phone Center,POINT (79.9074409 6.7163723)
Kalutara,Panadura,"City Book Shop, No.32 Galle Road Henamulla, Panadura",City Book Shop,POINT (79.9006234 6.7489155)
Kalutara,Panadura,"Kanthi Stores, No.195 Nadeebada Watta Paratta, Panadura",Kanthi Stores,POINT (79.90990479999999 6.7857813)
Kalutara,Panadura,"Janatharu Communication & Book Shop, No.178 Horana Road Mahawila, Panadura",Janatharu Communication & Book Shop,POINT (79.9551481 6.7193919)
Kalutara,Panadura,"Prasansa Enterprises, Pokuna Junction Malamulla, Panadura",Prasansa Enterprises,POINT (79.9388309 6.7197507)
Kalutara,Panadura,"C COMMUNICATION, MALAMULLA, PANADURA",C COMMUNICATION,POINT (79.90549849999999 6.7257576)
Kalutara,Panadura,"DANU COMMUNICATION, NEAR MALAMULLA SCHOOL,KIRIBERIYA ROAD, PANADURA",DANU COMMUNICATION,POINT (79.9230388 6.7108018)
Kalutara,Panadura,"WIJAYASIRI GIFT CENTER, 419,Main Street, Panadura",WIJAYASIRI GIFT CENTER,POINT (79.90591069999999 6.7130146)
Kalutara,Panadura,"Durga Communication, 79A, Kalayathana Road,Hirana , Panadura",Durga Communication,POINT (79.94448480000001 6.739838499999999)
Kalutara,Panadura,"Jamiya Book Shop & Communication, 10 C ,Wattalpola Road,Henamulla, Panadura",Jamiya Book Shop & Communication,POINT (79.90140959999999 6.748821500000001)
Kalutara,Panadura,"WIN Communication, No.2 Sagara Mw, Panadura",WIN Communication,POINT (79.9038377 6.7361789)
Kalutara,Payagala,"Eminent Communication, Malegoda, Payagala",Eminent Communication,POINT (79.8533577 6.921549400000001)
Kalutara,Payagala,"Adhya Communication, Galle Rd, Payagala",Adhya Communication,POINT (77.2130543 13.6583911)
Kalutara,Payagala,"Maleesha Book Shop, Halkandawila, Payagala",Maleesha Book Shop,POINT (80.08004199999999 6.793055400000001)
Kalutara,Payagala,"Wickramarachchi Book Shop, Daluwaththa, Payagala",Wickramarachchi Book Shop,POINT (80.10117199999999 6.455876)
Kalutara,Payagala,"Global Vision, Malegoda Junction Kuda Payagala, Payagala",Global Vision,POINT (79.97416020000001 6.5402458)
Kalutara,Payagala,"D.L.C.Book Shop And Grocery, Payagala",D.L.C.Book Shop And Grocery,POINT (79.98630039999999 6.526973099999999)
Kalutara,Wadduwa,"VISION GRHAPICS, NO;350 NANDUWA JUNTION,MORONTHUDUWA, WADDUWA",VISION GRHAPICS,POINT (79.97465509999999 6.6524299)
Kandy,Akurana,"Cell Point, No.4 Dunuwila Road, Akurana",Cell Point,POINT (80.61889579999999 7.364102)
Kandy,Alawatugoda,"JAYASIRI STORES, 51/1, OLD MATALE RD, ALAWATHUGODA",JAYASIRI STORES,POINT (80.60912759999999 7.4100268)
Kandy,Gampola,"Lodestar Communication, No.02 Kandy Road, Gelioya",Lodestar Communication,POINT (80.5980256 7.214563999999999)
Kandy,Gampola,"New Dial Tone Communication, No.20 Gampola Road, Gelioya",New Dial Tone Communication,POINT (80.5986501 7.212541)
Kandy,Gampola,"Smart G.S.M., No.71 Ambagamuwa Road, Gampola",Smart G.S.M.,POINT (80.5690364 7.1642818)
Kandy,Gampola,"NIPPON AGENCY POST OFFICE, 83, AMBAGAMUWA ROAD, GAMPOLA",NIPPON AGENCY POST OFFICE,POINT (80.5701095 7.162681099999999)
Kandy,Gampola,"Janatha Communication, No.392/A Kandy Road, Bothalapitiya",Janatha Communication,POINT (80.57945219999999 7.1752135)
Kandy,Gampola,"G.A.G.Stores, No.35 Godapala, Gelioya",G.A.G.Stores,POINT (80.59481799999999 7.2320688)
Kandy,Handessa,"GIFT SELECTION, NO.212,KANDY RD,DAULAGALA, HANDESSA",GIFT SELECTION,POINT (80.5776401 7.226656999999999)
Kandy,Kandy,"Shanthi Communication, No.10 Pujapitiya Road Medawala, Harispattuwa",Shanthi Communication,POINT (80.56617299999999 7.357698000000001)
Kandy,Kandy,"N.C.Enterprises, No.42 Main Street, Poojapitiya",N.C.Enterprises,POINT (80.58636919999999 7.379467199999999)
Kandy,Kandy,"Liyanage Communication, No.145/A Bandaranayake Mawatha, Kandy",Liyanage Communication,POINT (80.6278789 7.2868748)
Kandy,Kandy,"Eranga Communication, No.08 New Shopping Complex, Ankumbura",Eranga Communication,POINT (80.5688428 7.4375189)
Kandy,Kandy,"ORCHID COMMUNICATION, NO.05,MATALE RD, AMBATENNA",ORCHID COMMUNICATION,POINT (80.61589119999999 7.350721799999999)
Kandy,Kandy,"DYNAMIC CAFE, NO. 240, PERADENIYA RD, KANDY",DYNAMIC CAFE,POINT (80.62934319999999 7.289043199999999)
Kandy,Kandy,"Veena Video And Communication, No.02 Gongee De Silva Mawatha, Kandy",Veena Video And Communication,POINT (80.6221489 7.285963300000001)
Kandy,Kandy,"3g Telecom, No.41 Central Market, Kandy",3g Telecom,POINT (80.63449589999999 7.292135799999999)
Kandy,Kandy,"Softrings (pvt)ltd, 99, D.S.Senanayake  street, kandy",Softrings (pvt)ltd,POINT (80.5722955 7.1625907)
Kandy,Kandy,"Lanka Electrical, No.121 New Shopping Complex Goodshed, Kandy",Lanka Electrical,POINT (80.63589069999999 7.2957081)
Kandy,Kandy,"Yoga Communication, No.495 Nuwara Eliya Road, Pussellawa",Yoga Communication,POINT (80.63639499999999 7.107120999999999)
Kandy,Kandy,"Cellular Stores, No.24 De Soysa Lane, Kandy",Cellular Stores,POINT (80.6371951 7.293690199999999)
Kandy,Kandy,"JANA JAYA POST, YATINUWARA VEEDIYA, KANDY",JANA JAYA POST,POINT (80.6362257 7.294188299999999)
Kandy,Kandy,"IZZADEEN STORES, 11, 1ST LANE , MAWILMADA ,, KANDY",IZZADEEN STORES,POINT (80.63428399999999 7.3214739)
Kandy,Katugastota,"New Digital Electronics, No.110c Madawala Road, Katugasthota",New Digital Electronics,POINT (80.6264415 7.3251889)
Kandy,Kundasale,"L.G.A.P.O, Pallekele, Kundasale",L.G.A.P.O,POINT (80.695961 7.2808195)
Kandy,Kundasale,"Try And Buy, No.10 Gamuduwa, Kundasale",Try And Buy,POINT (80.6965211 7.280776100000001)
Kandy,Nawalapitiya,"G.P.S.Communication, New Bus Stand, Nawalapitiya",G.P.S.Communication,POINT (80.53513319999999 7.0536088)
Kandy,Nawalapitiya,"The Mobile City, No.16 Ambagamuwa Rd, Nawalapitiya",The Mobile City,POINT (80.5689266 7.164452799999999)
Kandy,Teldeniya,"Kosala Enterprises, Kandy Road, Theldeniya",Kosala Enterprises,POINT (80.76507149999999 7.3098065)
Kandy,Wattegama,"Dream House, No.74/2 Suwarnagiri Meegammana West, Wattegama",Dream House,POINT (80.6551248 7.3476658)
Kandy,Wattegama,"Dhanaja Teleshop, City Complex, Wattegama",Dhanaja Teleshop,POINT (80.6814875 7.350547199999999)
Kegalle,Aranayaka,"Gamini Stores, No.1233, Aranayaka",Gamini Stores,POINT (80.46472349999999 7.149934)
Kegalle,Aranayaka,"MAHAJANA COMMUNICATION, No 528, DIPPITIYA ARANAYAKA",MAHAJANA COMMUNICATION,POINT (80.4583244 7.1738876)
Kegalle,Aranayaka,"City Communication, 673, Dippitiya, Aranayaka",City Communication,POINT (79.8623765 6.868325599999999)
Kegalle,Galigamuwa,"New row com, Colombo road, Galigamuwa, Colombo road,Galigamuwa",New row com,POINT (80.3104076 7.2353048)
Kegalle,Gonagaldeniya,"chami com, no.28/Gonagaldeniya, Waharaka, Gonagaldeniya road,  Gonagaldeniya",chami com,POINT (80.1988393 7.0794637)
Kegalle,Karawanella,"Indunil com, 546/a, Karawanella, Kegalle road",Indunil com,POINT (80.26089569999999 7.025092)
Kegalle,Kegalle,"Yes VIDEO & COMMUNICATION, 107,COLOMBO RD., KAGALLE, Kegalle",Yes VIDEO & COMMUNICATION,POINT (80.34332239999999 7.2529879)
Kegalle,Kegalle,"Lanka Jewellery, Main Street, Kegalle, Kegalle",Lanka Jewellery,POINT (80.34387269999999 7.253127399999999)
Kegalle,Kegalle,"SANJEEWA COMMUNICATION, No.24,KALUGALA MW, KEGALLE., Kegalle",SANJEEWA COMMUNICATION,POINT (80.34328359999999 7.253144499999999)
Kegalle,Kegalle,"DILANKA COMMUNICATION, KEGALLE ROAD, DEWALEGAMA, Kegalle",DILANKA COMMUNICATION,POINT (80.34328359999999 7.253144499999999)
Kegalle,Kegalle,"RED ROSE BOOK SHOP, ROYAL SHOPPING COMPLEX,MAIN STREET, KEGALLE",RED ROSE BOOK SHOP,POINT (80.3464213 7.2531522)
Kegalle,Kegalle,"SRIYANI TEXTILES, No80, MAIN STREET,  KEGALLE",SRIYANI TEXTILES,POINT (80.34470840000002 7.252998799999999)
Kegalle,Kegalle,"Sriarthi Jewellers, Tarzan Shopping Complex Main Street, Kegalle",Sriarthi Jewellers,POINT (80.34450079999999 7.252902700000001)
Kegalle,Kegalle,"Jayamini Com, Main Street, warakapola, KANDY ROAD",Jayamini Com,POINT (80.1956323 7.2246552)
Kegalle,Kegalle,"D.A. COMM, AMBEPUSSA, WARAKAPOLA, ABEBPUSSA",D.A. COMM,POINT (80.2129489 7.2369815)
Kegalle,Kegalle,"Friend Cellular, No.50 Kandy Road, Warakapol, WARAKAPOLA",Friend Cellular,POINT (80.1996089 7.226987599999999)
Kegalle,Kitulgala,"Wasanas Com And Studio, Malwatta Road, Kithulgala, near the bridge",Wasanas Com And Studio,POINT (80.40851979999999 6.9981183)
Kegalle,Mawanella,"Trax TechNologies Pvt Ltd, No.51 Main Street, Mawanella, Mawanella",Trax TechNologies Pvt Ltd,POINT (79.89160629999999 6.8929452)
Kegalle,Mawanella,"METRO COMMUNICATION, No;66,HEMMATHAGAMA ROAD, MAWANELLA",METRO COMMUNICATION,POINT (80.55981629999999 7.160841599999999)
Kegalle,Ruwanwella,"Bhagya Book Shop, No.326 Anguruwella, Ruwanwella, Kegalle road",Bhagya Book Shop,POINT (80.26000999999999 7.0500446)
Kegalle,Ruwanwella,"Warusha Book Shop, Veyangoda Road, Ruwanwella, Main street",Warusha Book Shop,POINT (80.14541509999999 7.097092)
Kegalle,Yatiyanthota,"The Flower, Parussella Road, Yatiyanthota, parussella road",The Flower,POINT (80.2955419 7.0288824)
Kilinochchi,Kilinochchi,"Rathna Tex, A9 Road, KiliNochchi",Rathna Tex,POINT (80.3792098 9.380300799999999)
Kilinochchi,Kilinochchi,"MEXICO COM, A9, ROAD, KILINoCHCHI TOWN, KILINoCHCHI",MEXICO COM,POINT (80.4082193 9.391473999999999)
Kilinochchi,Kilinochchi,"NIVI PHONE SHOP, KANAGAPURAM ROAD, BUSSTAND, KILINoCHCHI",NIVI PHONE SHOP,POINT (80.40655479999999 9.383111999999999)
Kilinochchi,Kilinochchi,"Mutthumari Electronics, No.5 Kanagapuram Road, KiliNochchi",Mutthumari Electronics,POINT (80.4034276 9.383380100000002)
Kilinochchi,Kilinochchi,"Singapoare Phone Shop, No.62 Kanagaduram Rd Uthayanagar, KiliNochchi",Singapoare Phone Shop,POINT (80.40320969999999 9.3836815)
Kilinochchi,Kilinochchi,"Rajkumar Browsing Center, A-9 Road, KiliNochchi",Rajkumar Browsing Center,POINT (80.3792098 9.380300799999999)
Kilinochchi,Kilinochchi,"ANBU MOBILE, 37, A9 ROAD, KILINoCHCHI, KILINoCHCHI",ANBU MOBILE,POINT (80.408157 9.388926999999999)
Kilinochchi,Kilinochchi,"KALAI NET CAFE, A9, ROAD, ANANTHAPURAM, KILINoCHCHI",KALAI NET CAFE,POINT (80.40878599999999 9.373732499999999)
Kilinochchi,Kilinochchi,"ROYAL PHONE SHOP, MULLAI ROAD, VISUVAMADU JUNCTION, VISUVAMADU, MULLAITHIVU",ROYAL PHONE SHOP,POINT (79.8406114 7.2112395)
Kurunegala,Galgamuwa,"A B C Communication, Main Street, Galgamuwa, Anuradapura road",A B C Communication,POINT (79.888081 6.907958)
Kurunegala,Giriulla,"Jayamaha Communication, Negombo Road Bus Stand, Giriulla",Jayamaha Communication,POINT (80.12190129999999 7.328989600000001)
Kurunegala,Hettipola,"Kesara Cell Point, Chilaw Road, Hettipola, Chilaw Road",Kesara Cell Point,POINT (80.0823437 7.6064398)
Kurunegala,Hettipola,"Rishak Communication, Kotambapitiya, Hettipola, Chilaw Road",Rishak Communication,POINT (80.10038759999999 7.605688999999999)
Kurunegala,Hettipola,"HERATH COMMUNICATION, BUS STAND,HETTIPOLA, WILGAMUWA",HERATH COMMUNICATION,POINT (80.9136508 7.536483899999999)
Kurunegala,Hiripitiya,"Peoples Trust Communication, Hiripitiya, Nikadalupotha",Peoples Trust Communication,POINT (80.3689277 7.6563936)
Kurunegala,Ibbagamuwa,"JAYASARA COMMUNICATION, DAMBULLA ROAD, DEHELGAMUWA,IBBAGAMUWA",JAYASARA COMMUNICATION,POINT (80.43438429999999 7.530893099999999)
Kurunegala,Ibbagamuwa,"Shehan Communication, No.14 Dambulla Road Yakalla, Ibbagamuwa",Shehan Communication,POINT (80.43438429999999 7.530893099999999)
Kurunegala,Ibbagamuwa,"Jayasara Communication, Dambulla Road, Ibbagamuwa, Ibbagamuwa",Jayasara Communication,POINT (80.4467088 7.543185200000001)
Kurunegala,Kuliyapitiya,"DINUJAYA COM, KULIYAPITIYA ROAD,  BIHALPOLA",DINUJAYA COM,POINT (79.9858057 7.540385300000001)
Kurunegala,Kuliyapitiya,"BULATHSINGHALA COM, HETTIPOLA ROAD, KULIYAPITIYA, Kuliyapitiya",BULATHSINGHALA COM,POINT (80.0450331 7.4774046)
Kurunegala,Kuliyapitiya,"SINGAPORE TELESHOP,  67,BHODHIRAJA MW, KURUNEGALA",SINGAPORE TELESHOP,POINT (80.36374069999999 7.488819299999999)
Kurunegala,Kuliyapitiya,"Asiri Com, Kuliyapitiya Rd, Kadigamuwa",Asiri Com,POINT (80.0404685 7.4694114)
Kurunegala,Kuliyapitiya,"wijesinghe stores, 01, meegahakotuwa",wijesinghe stores,POINT (80.0148413 7.474950600000001)
Kurunegala,Kuliyapitiya,"Suresh Com, Dandagamuwa, Kuliyapitiya",Suresh Com,POINT (80.02794879999999 7.457034600000001)
Kurunegala,Kurunegala,"Niroshan Media, Keppitigala Road, Panagamuwa",Niroshan Media,POINT (80.51051389999999 7.4999103)
Kurunegala,Kurunegala,"SANDEEAPNI COM, BARIGODA, NAKKAWATHTHA",SANDEEAPNI COM,POINT (80.1420799 7.4559114)
Kurunegala,Kurunegala,"Dinidu Com, Mavi Ela, Moragane, Mavi ela",Dinidu Com,POINT (80.1257265 7.5474854)
Kurunegala,Kurunegala,"ISURU BOOK SHOP, 28,NIKAWERATIYA RD, KOBEYGANE",ISURU BOOK SHOP,POINT (80.1260202 7.655721199999999)
Kurunegala,Maho,"Rantharu Communication, Main Street, Maho, Madagalla Road",Rantharu Communication,POINT (80.01192019999999 7.8787825)
Kurunegala,Maho,"MAZAS TRADERS, 08,MAIN ST., MAHO, Madagalla Road",MAZAS TRADERS,POINT (79.85018409999999 6.9369983)
Kurunegala,Maho,"BALALLA PRE PAID PVT LTD, BALALLA, MAHO, Daladagama",BALALLA PRE PAID PVT LTD,POINT (80.24777469999999 7.7879979)
Kurunegala,Maspotha,"R.Vision, Pallandeniya, Maspotha",R.Vision,POINT (80.32956659999999 7.522850999999999)
Kurunegala,Mawatagama,"NEW SILVERLINE SELIULAR, POLA PARA, MAWATHAGAMA",NEW SILVERLINE SELIULAR,POINT (80.4480703 7.432557099999999)
Kurunegala,Mawatagama,"Wasana Record Bar, No.03 Samodya Mawatha, Mawathagama",Wasana Record Bar,POINT (79.9476495 6.846476999999999)
Kurunegala,Melsiripura,"Araliya Mobile, Dambulla Road, Melsiripura",Araliya Mobile,POINT (80.5081294 7.640979799999999)
Kurunegala,Melsiripura,"Tarindu Mobile World, Dambulla Road, Melsiripura",Tarindu Mobile World,POINT (80.5066502 7.6395928)
Kurunegala,Narammala,"Nandana Record Bar, No.1 New Shopping Complex, Narammala",Nandana Record Bar,POINT (79.8508576 6.9357649)
Kurunegala,Narammala,"Lakshi Photo, Negombo Road, Narammala",Lakshi Photo,POINT (80.2147379 7.429528399999999)
Kurunegala,Narammala,"HELLO MOBILE, 48,KURUNEGALA ROAD, NARAMMALA",HELLO MOBILE,POINT (80.21445299999999 7.4308983)
Kurunegala,Nikaweratiya,"Aazir Mobile Pvt Ltd, No.43 Kurunegala Road, Nikaweratiya",Aazir Mobile Pvt Ltd,POINT (80.36482479999999 7.4878621)
Kurunegala,Nikaweratiya,"GEM TEX, NO-7,PUTTALAM ROAD, NIKAWERATIYA",GEM TEX,POINT (80.1175088 7.747554199999999)
Kurunegala,Pannala,"Sheran Mobiles, No.28 Heelogama Road, Nikaweratiya, Heelogama Road",Sheran Mobiles,POINT (80.11613489999999 7.7485283)
Kurunegala,Pannala,"Teleone Communication, Puttalam Road, Nikaweratiya, Kurunagala Road",Teleone Communication,POINT (80.1157735 7.750973)
Kurunegala,Pannala,"Jem House Mobile, Kurunegala Road, Nikaweratiya, Kurunagala Road",Jem House Mobile,POINT (80.11743749999999 7.747437499999999)
Kurunegala,Polgahawela,"Bright Com, No.91 Godawela, Polgahawela",Bright Com,POINT (80.3033762 7.3437765)
Kurunegala,Polpithigama,"Sathsara Communication, Galtanwewa, Polpithigama",Sathsara Communication,POINT (80.3671701 7.5921862)
Kurunegala,Potuhera,"Rathnayake Com, Bulugolla Junction, Pothuhera",Rathnayake Com,POINT (80.3223345 7.3961101)
Kurunegala,Rideegama,"Royal Mobile, Keppitigala Road, Rideegama",Royal Mobile,POINT (80.4903698 7.5486136)
Kurunegala,Rideegama,"Royal Communication, Keppitigala Road, Rideegama",Royal Communication,POINT (80.446995 7.542096000000001)
Kurunegala,Wariyapola,"Shan Video, Super Market Puttalam Road, Wariyapola",Shan Video,POINT (80.2453568 7.6206323)
Kurunegala,Wariyapola,"Siriwardana And Sons, No.6 New Shopping Complex, Wariyapola",Siriwardana And Sons,POINT (80.2456703 7.6200778)
Kurunegala,Wariyapola,"Mihira Communication, No.39/A Chilaw Road, Wariyapola",Mihira Communication,POINT (80.2455473 7.620149299999999)
Mannar,Adampan,"Adampan Hardware, Nedunkandal, Adampan, Adampan",Adampan Hardware,POINT (80.0000708 8.941614)
Mannar,Mannar,"Shalouk Bookshop And Fancy, Main Street, Pesalai, Mannar., Pesalai",Shalouk Bookshop And Fancy,POINT (79.9083301 8.9862342)
Mannar,Mannar,"Net City, #86, Main Street, Mannar., Mannar",Net City,POINT (79.91139249999999 8.9816383)
Mannar,Nanaddan,"UDAYAN STORES, MAIN JUNCTION,    Nanatan, Mannar, Mannar, Nanattan",UDAYAN STORES,POINT (79.96917329999999 8.837379)
Mannar,Mannar,"Vetrichelvam Communication, Ward No:01Pesalai, Pesalai",Vetrichelvam Communication,POINT (79.82258759999999 9.085174499999999)
Mannar,Mannar,"Rajeeth Phone Shop & Communication, No:02,  New Bus Stand, Mannar",Rajeeth Phone Shop & Communication,POINT (79.9139067 8.9785512)
Matara,Akuressa,"Ishan Communication, No.3 Pitabeddara Road Thibbotuwawa, Akuressa",Ishan Communication,POINT (80.55292919999999 6.2169145)
Matara,Akuressa,"Romek Enterprises, Sripali Bulding Matara Rd, Akuressa",Romek Enterprises,POINT (80.47792629999999 6.0987133)
Matara,Akuressa,"ISURU COMMUNICATION, DENIYAYA RD, AKURESSA",ISURU COMMUNICATION,POINT (80.4731178 6.2010475)
Matara,Akuressa,"Senlaka Nilwala Book Shop, No.121b Deniyaya Road, Akuressa",Senlaka Nilwala Book Shop,POINT (80.47612359999999 6.1028109)
Matara,Akuressa,"Nimali Com, No.1 Market Bangama Road, Akuressa",Nimali Com,POINT (80.86295939999999 6.3247702)
Matara,Akuressa,"isuru book city, Akuressa, Akuressa",isuru book city,POINT (80.4766291 6.095857)
Matara,Akuressa,"Colombo Fancy House, Godapitiya, Akuressa",Colombo Fancy House,POINT (80.4796386 6.0888266)
Matara,Dickwella,"Union Pharmacy, Dickwella",Union Pharmacy,POINT (80.6937045 5.9640099)
Matara,Dickwella,"Orchid Trade Center, No.24 Beliatta Rd, Dickwella",Orchid Trade Center,POINT (80.6949408 5.9651118)
Matara,Dickwella,"SOUTHERN FOOD CITY, MAHAWELA ROAD, DICKWELLA",SOUTHERN FOOD CITY,POINT (80.69908079999999 5.9646946)
Matara,Deiyandara,"Udayasiri Com, Hakmana Rd, Deiyandara",Udayasiri Com,POINT (80.6027654 6.153542)
Matara,Denipitiya,"Excelent Communication, Welihinda, Denipitiya",Excelent Communication,POINT (80.465852 5.9836319)
Matara,Deniyaya,"Wijaya Communication And Book Shop, Pallegama, Kolawenigama",Wijaya Communication And Book Shop,POINT (80.01300909999999 6.7622928)
Matara,Deniyaya,"Pabasara Communication, Pallegama Kolawenigama, Deniyaya",Pabasara Communication,POINT (80.52484919999999 6.3332489)
Matara,Gandara,"Abeysooriya Communication, Edirisinghe Building, Gandara",Abeysooriya Communication,POINT (79.8533577 6.921549400000001)
Matara,"Kamburugamuwa,","Manahara Communication, Labeema, Kamburugamuwa",Manahara Communication,POINT (80.493247 5.9610899)
Matara,Malimbada,"Jayamini Com, No.41 Malimbada, Palatuwa",Jayamini Com,POINT (80.5176688 6.0087047)
Matara,Matara,"Little Hut Communication And Internet Cafe, No.3 Sirimangala Road, Matara",Little Hut Communication And Internet Cafe,POINT (80.5487861 5.9503612)
Matara,Matara,"New Vintas, No.151 Old Tangalle Road Kotuwegoda, Matara",New Vintas,POINT (80.5519791 5.946191499999999)
Matara,Matara,"J.K.TRADERS, 19 E,BATHUTHA RD, MATARA",J.K.TRADERS,POINT (80.54123419999999 5.9509521)
Matara,Matara,"Micro Tel Phone Shop, No.06 Pathima Road, Matara",Micro Tel Phone Shop,POINT (80.5361339 5.9485483)
Matara,Matara,"Sampath Communication, No.15 Hakmana Road, Matara",Sampath Communication,POINT (80.54643489999999 5.9494425)
Matara,Matara,"Cx Cd Max, No.385 1/A New Tangalle Road Maddawatta, Matara",Cx Cd Max,POINT (80.7094103 5.975998199999999)
Matara,Matara,"XXL COMMUNICATION, 21,BEACH RD, MATARA",XXL COMMUNICATION,POINT (80.5279262 5.9368744)
Matara,Matara,"NISHA GIFT CENTER, 59,BUS STAND, MATARA",NISHA GIFT CENTER,POINT (77.9139289 8.4473459)
Matara,Matara,"Aron Tech, Murunganpiddy, Murungan., Murungan",Aron Tech,POINT (76.3155335 9.9667163)
Matara,Matara,"JAYAWARDENA STORES, WALASGALA, WALASGALA",JAYAWARDENA STORES,POINT (80.699004 5.985257)
Matara,Matara,"CHAT COM, KEKANADURA, MATARA",CHAT COM,POINT (80.60613619999999 5.967524999999999)
Matara,Matara,"HAPPY DISIGN COMMUNICATION, 27/3,OPEN UNIVARCITY RD,NUPE, MATARA",HAPPY DISIGN COMMUNICATION,POINT (80.5349449 5.9499397)
Matara,Matara,"SOUTHERN COMMUNICATION, 29,BEACH ROAD,KOTUWEGODA, MATARA",SOUTHERN COMMUNICATION,POINT (80.54935999999999 5.94394)
Matara,Matara,"GODAGAMA KIRI KADE, GOLOKGAHAWATTA, GODAGAMA",GODAGAMA KIRI KADE,POINT (79.97337709999999 6.814858300000001)
Matara,Matara,"Janitha Stores, Deniyaya rd, Waralla, Kotapola",Janitha Stores,POINT (80.52816299999999 6.2716696)
Matara,Matara,"Kulathunga Communication Pvt Ltd, No.38 Rathmale, Matara",Kulathunga Communication Pvt Ltd,POINT (80.6543523 5.9781773)
Matara,Matara,"HESHA BOOH SHOP, AMARA NIWASA, WARALLA, KOTAPOLA",HESHA BOOH SHOP,POINT (79.91868409999999 6.8867889)
Matara,Matara,"Its Institute Of Techno Solutions, No.200 Matara Road, Kamburupitiya",Its Institute Of Techno Solutions,POINT (80.5622582 6.0744359)
Matara,Matara,"Danu net cafe & Game Zone, Matara Rd,, Kamburupitiya",Danu net cafe & Game Zone,POINT (80.2477901 6.010994699999999)
Matara,Matara,"P.K.Stores, Horapavita",P.K.Stores,POINT (80.57274389999999 6.117089099999999)
Matara,Matara,"Abeysekara Stores, Matara Rd, Yatiyana",Abeysekara Stores,POINT (80.60101039999999 6.024337)
Matara,Matara,"Abeysooriya Communication, Edirisinghe Building, Gandara",Abeysooriya Communication,POINT (79.8533577 6.921549400000001)
Matara,Matara,"Jeewana, ""Jeewana"" Matara Road, Kamburupitiya",Jeewana,POINT (80.56505349999999 6.0783573)
Matara,Mirissa,"ORCHID COMMUNICATION, 05,SUPER MARKET, MIRISSA",ORCHID COMMUNICATION,POINT (80.4586637 5.946752099999999)
Matara,Mirissa,"LAKMAL COMMUNICATION, 103,HAKMANA RD, MATARA",LAKMAL COMMUNICATION,POINT (80.5458009 5.9534896)
Matara,Morawaka,"E Plus Cellular Center, Near The Bus Stand, Morawaka",E Plus Cellular Center,POINT (80.4918809 6.2615473)
Matara,Morawaka,"Supertei Distributers (Pvt) Ltd., Deniyaya Road, Morawaka",Supertei Distributers (Pvt) Ltd.,POINT (80.4922773 6.2604612)
Matara,Morawaka,"The Phone Shop, Deniyaya rd, Morawaka",The Phone Shop,POINT (80.4918831 6.2616085)
Matara,Morawaka,"Gamage Communication, Neluwa Road Kalubovitiyana, Morawaka",Gamage Communication,POINT (80.40819019999999 6.3520118)
Matara,Morawaka,"Dasatha Communication, Milalla, Morawaka",Dasatha Communication,POINT (80.4969926 6.2685195)
Matara,Morawaka,"Sanila Studio, Deniyaya Road, Morawaka",Sanila Studio,POINT (80.5725927 6.3598414)
Matara,Pitabeddara,"Thineth Internet Cafe, Deniyaya Rd, Pitabeddara",Thineth Internet Cafe,POINT (80.0157449 6.9507844)
Matara,Pitabeddara,"Sisara Phone Shop, 3rd Step, Darangala, Pitabaddara",Sisara Phone Shop,POINT (80.06291379999999 6.7165985)
Matara,Pitabeddara,"CHATHUMIN MOBILE, AKURESSA RD, PITABADDARA",CHATHUMIN MOBILE,POINT (80.4739613 6.200969799999999)
Matara,Pitabeddara,"Isuru Communication, Deniyaya Road, Pitabeddara",Isuru Communication,POINT (80.4731178 6.2010475)
Matara,Pitabeddara,"Vindana Hotel And Grocery, Malpudanella, Pitabeddara",Vindana Hotel And Grocery,POINT (80.468655 6.1963004)
Matara,Thelijjawila,"Lihini.Com, No.04 Matara Road, Thelijjawila",Lihini.Com,POINT (80.37168939999999 5.9684595)
Matara,Thelijjawila,"Madumal Communication, Akuressa Road, Thelijjawila",Madumal Communication,POINT (80.4958384 6.0249864)
Matara,Urubokka,"Mayura Grocery, Bengamuwa, Urubokka",Mayura Grocery,POINT (79.85520149999999 6.942432200000001)
Matara,Walasmulla,"A.H.T.Communication, No.29 Pallekanda Road, Walasmulla",A.H.T.Communication,POINT (80.69727639999999 6.1577614)
Matara,Weligama,"NEW EXCEELENT COM, MEDA MW, WELIGAMA",NEW EXCEELENT COM,POINT (80.43005769999999 5.9743897)
Matara,Weligama,"SAMINDA DIGITAL IMAGE & VIDEO, MIDIGAMA, WELIGAMA",SAMINDA DIGITAL IMAGE & VIDEO,POINT (80.39076109999999 5.96813)
Matara,Weligama,"Chat Communication, Chat Communication Main Street, Weligama",Chat Communication,POINT (80.42486 5.974353)
Matara,Welihinda,"Excelent Communication, Welihinda, Denipitiya",Excelent Communication,POINT (80.465852 5.9836319)
Matale,Dambulla,"G.S.Record Bar And Communication, No.774 Anuradhapura Road, Dambulla",G.S.Record Bar And Communication,POINT (79.8538123 8.0305044)
Matale,Dambulla,"Nuwan Phone Center, No.784/B Anuradhapura Road, Dambulla",Nuwan Phone Center,POINT (80.6488756 7.8882134)
Matale,Dambulla,"Sigiri Cellular Centre, No.B-40 New Bus Stand, Dambulla",Sigiri Cellular Centre,POINT (80.6515938 7.870204299999999)
Matale,Dambulla,"M.L.M. Phone Shop, No.588 Anuradhapura Road, Dambulla",M.L.M. Phone Shop,POINT (80.6510569 7.876280299999999)
Matale,Dambulla,"Sahara Agency Post Office, No.561 Anuradhapura Road, Dambulla",Sahara Agency Post Office,POINT (80.65128319999999 7.862732800000001)
Matale,Dambulla,"Senith Communication, No.455 Kurunegala Junction, Dambulla",Senith Communication,POINT (80.6509191 7.874519800000001)
Matale,Dambulla,"Sujeewa Communication, No.508 Kandy Road, Dambulla",Sujeewa Communication,POINT (80.6509191 7.874519800000001)
Matale,Dambulla,"Luckystar Communication, No.457 Kurunegala Junction, Dambulla",Luckystar Communication,POINT (80.6511276 7.8746602)
Matale,Dambulla,"Mandakini Communication And Salon, No.257 Matale Road, Dambulla",Mandakini Communication And Salon,POINT (80.625168 7.465182)
Matale,Dambulla,"Nimeshi Communication And Keshakala Saloon, Trincomalee Road, Inamaluwa",Nimeshi Communication And Keshakala Saloon,POINT (80.5709849 7.8289651)
Matale,Dambulla,"CR Tailor & Communication, No - 21 , Wewala Wewa , Dambulla",CR Tailor & Communication,POINT (80.7782407 7.8859171)
Matale,Galewala,"Wihite House Communication, No.14 Kalawewa Road, Galewela",Wihite House Communication,POINT (80.57088709999999 7.7601482)
Matale,Galewala,"Lakshan Electrical And Communication, No.270 Dambulla Road, Galewela",Lakshan Electrical And Communication,POINT (80.5712442 7.7595946)
Matale,Galewala,"Chandika Communication, No.05 Matale Junction, Galewela",Chandika Communication,POINT (80.4578365 8.3307422)
Matale,Galewala,"T.R.Cellular And Phone Shop, No.22 Kurunegala Road, Galewela",T.R.Cellular And Phone Shop,POINT (80.5948607 7.789502199999999)
Matale,Galewala,"Piume Celuller, No.04 New Shoping Complex, Galewela",Piume Celuller,POINT (79.8450819 6.9273121)
Matale,Galewala,"Dilhani Communication, No.02 Matale Junction, Galewela",Dilhani Communication,POINT (80.4578365 8.3307422)
Matale,Kibissa,"Wasana Book Shop And Communication, Sigiriya Road, Kimbissa",Wasana Book Shop And Communication,POINT (80.72721079999999 7.9398336)
Matale,Kibissa,"Priyantha Agro, Sigiriya Road, Kimbissa",Priyantha Agro,POINT (80.7258683 7.939372699999999)
Matale,Kibissa,"SHANTHA COMMUNICATION, SIGIRIYA RD, KIBISSA",SHANTHA COMMUNICATION,POINT (80.7207217 7.9851855)
Matale,Matale,"SATCO LANKA TECNoLOGY, 638, MAIN ST, MATALE",SATCO LANKA TECNoLOGY,POINT (80.62295209999999 7.469020800000001)
Matale,Matale,"SUMUDU STUDIO, WELLEWELA,HATTOTA AMUNA., MATALE",SUMUDU STUDIO,POINT (80.82299119999999 7.605797)
Matale,Matale,"Mandakini Communication And Salon, No.257 Matale Road, Dambulla",Mandakini Communication And Salon,POINT (80.625168 7.465182)
Matale,Matale,"Middlesoft Communication, No.44 Kandy Road, Matale",Middlesoft Communication,POINT (80.62357159999999 7.467654400000001)
Matale,Matale,"Wajira Gift, No.24 Kumbiyangoda, Matale",Wajira Gift,POINT (80.61342719999999 7.453985899999999)
Matale,Matale,"L.G.Communication, No.752 Trincomalee Road, Matale",L.G.Communication,POINT (80.27054339999999 8.2860239)
Matale,Matale,"M.M.Stores, Pathingaskotuwa, Matale",M.M.Stores,POINT (80.61037800000001 7.5569551)
Matale,Matale,"MD COMMUNICATION, MADAWALA ULPOTHA, MATHALE",MD COMMUNICATION,POINT (80.6364875 7.6101475)
Matale,Matale,"RSK BILL CENTER, 57,SUPER MARKET COMPLEX,KING STREET, MATALE",RSK BILL CENTER,POINT (80.6228296 7.4687947)
Matale,Matale,"LAHIRU STORES, FRONT POLICE STATION, WILGAMUWA",LAHIRU STORES,POINT (80.9164957 7.5420122)
Matale,Matale,"White House, No.57 Dharmapala Mawatha, Matale",White House,POINT (80.6225183 7.4685251)
Matale,Matale,"Athula Com, Pannekaraya, Welangahawatta",Athula Com,POINT (80.65428919999999 7.8456058)
Matale,Naula,"Nimes Kal, Elahera Road, Naula",Nimes Kal,POINT (80.65688229999999 7.7065897)
Matale,Naula,"PLUS COMMUNICATION, ARANGALA JUNCTION, NAULA",PLUS COMMUNICATION,POINT (80.65204829999999 7.694939199999999)
Matale,Naula,"Ranga Comminication, Opposite The Bus Stand, Naula",Ranga Comminication,POINT (80.65308759999999 7.704501499999998)
Matale,Palapathwela,"Reehas Fancy And Communication, Matale Road, Palapathwela",Reehas Fancy And Communication,POINT (80.6257296 7.530817399999999)
Matale,Sigiriya,"New Sigiri Cafe, Main Road, Sigiriya",New Sigiri Cafe,POINT (80.75456200000001 7.9517594)
Matale,Ukuwela,"Win Win Communication, No.1 Matale Road, Ukuwela",Win Win Communication,POINT (80.6332779 7.4211307)
Matale,Ukuwela,"Nildiya Communication, Ukuwela",Nildiya Communication,POINT (80.6333719 7.421520999999999)
Matale,Ukuwela,"Sumaga Book Shop, No.6 Matale Road, Ukuwela",Sumaga Book Shop,POINT (80.63307329999999 7.421272000000001)
Monaragala,Badalkumbura,"HIRU COMMUNICATION, MAIN STREET, BADALKUMBURA, Badalkumbura",HIRU COMMUNICATION,POINT (81.23500849999999 6.8954982)
Monaragala,Badalkumbura,"NIMACO COMMUNICATION, MAIN STREET, BADALKUMBURA",NIMACO COMMUNICATION,POINT (81.2360336 6.8956857)
Monaragala,Bibile,"Sanjaya Cellular And Communication, No.11 Bus Stand, Bibile, Bibile",Sanjaya Cellular And Communication,POINT (81.22546 7.160629999999999)
Monaragala,Bibile,"AMILA VIDEO AND COMMUNICATION, BUS STANDET, DOMBAGAHAWELA, BIBILE, Bibile",AMILA VIDEO AND COMMUNICATION,POINT (81.22158999999999 7.162408999999999)
Monaragala,Buttala,"Duminda Call Center, Wellawaya Road,Burutha Junction, Buttala",Duminda Call Center,POINT (81.2167525 6.7517793)
Monaragala,Buttala,"Ranjan Video, Super Market, Buttala",Ranjan Video,POINT (81.2471054 6.759383799999999)
Monaragala,Buttala,"Sudaraka Audio & Video Centre, No 11,Shoping complex,Okkampitiya Road,Buttala",Sudaraka Audio & Video Centre,POINT (81.2569383 6.7568674)
Monaragala,Buttala,"Sathutu Call Centre, Main Street, Buttala",Sathutu Call Centre,POINT (81.24650509999999 6.7598541)
Monaragala,Buttala,"Sampath Communication and Video Centre, Kukurampola Junction,Uwa Pelwatta",Sampath Communication and Video Centre,POINT (81.20169829999999 6.7486568)
Monaragala,Kataragama,"V SISI CITY LIGHT, NANDAMITHRA MW, NEW TOWNKATARAGAMA",V SISI CITY LIGHT,POINT (79.8750476 6.8744584)
Monaragala,Kataragama,"WEERASIRI COMMUNICATION, NEW TOWN, KATARAGAMA",WEERASIRI COMMUNICATION,POINT (81.3672838 6.4051525)
Monaragala,Monaragala,"U Net Communication, Kachchcheri Handiya, Monaragala",U Net Communication,POINT (81.3384215 6.8538146)
Monaragala,Monaragala,"Sun Up Communication, No.5 New Bus Stand, Monaragala, Monaragala",Sun Up Communication,POINT (81.3516609 6.872003200000001)
Monaragala,Monaragala,"Laksiri Communication, No.03 New Bus Stand, Monaragala, Monaragala",Laksiri Communication,POINT (81.3514782 6.8717421)
Monaragala,Monaragala,"NILESHA COMMUNICATION, No 52,Bus Stand, Monaragala, Monaragala",NILESHA COMMUNICATION,POINT (81.35153099999999 6.871796799999999)
Monaragala,Monaragala,"Boralessa TechNology, No.10 Hulandawa Junction, Monaragala",Boralessa TechNology,POINT (81.338978 6.854088)
Monaragala,Monaragala,"Silva Line, 125,KUMARADOLA RD,MONARAGALA, Monaragala",Silva Line,POINT (81.35163679999999 6.874976999999999)
Monaragala,Monaragala,"Deshan Communication, Uva Kudaoya, Thanamalvila, Kudaoya",Deshan Communication,POINT (81.1228806 6.5315453)
Monaragala,Monaragala,"S NET, ETHIMALE WEWA, MONARAGALA",S NET,POINT (81.5353164 6.823358499999999)
Monaragala,Monaragala,"Pethum Communication, Infront School, Pelwatta",Pethum Communication,POINT (79.9290845 6.8927193)
Monaragala,Monaragala,"New Dayawin Phone Shop & post Off., 24,Bus Stand, MONARAGALA, MONARAGALA",New Dayawin Phone Shop & post Off.,POINT (81.3516609 6.872003200000001)
Monaragala,Monaragala,"Thilina Communication, Main Street, Thanamalwila",Thilina Communication,POINT (80.2121686 6.9515118)
Monaragala,Okkampitiya,"New Lanka Communication And Video, Main Street, Okkampitiya, Okkampitiya",New Lanka Communication And Video,POINT (80.26160159999999 6.8523761)
Monaragala,Okkampitiya,"Priyankara Book shop e communication, 65,Pothuwil Road, 20 Mile Post, Siyambalanduwa",Priyankara Book shop e communication,POINT (79.87640450000001 6.915706999999999)
Monaragala,Siyambalanduwa,"ASHAN COMMUNICATION, AMPARA RD., SIYAMBALANDUWA",ASHAN COMMUNICATION,POINT (81.6773441 7.3014215)
Monaragala,Siyambalanduwa,"Challenge Communication And Book Shop, Ampara Junction, Siyambalanduwa",Challenge Communication And Book Shop,POINT (81.55948889999999 6.9065173)
Monaragala,Siyambalanduwa,"NIROSHAN STORES, 9 MILE POST,GOVINDUPURA, MONARAGAL, Siyambalanduwa",NIROSHAN STORES,POINT (81.4763298 6.968318099999999)
Monaragala,Tanamalwila,"Manjula Communication, Uwa Kudaoya,Thanamalwila",Manjula Communication,POINT (81.12489359999999 6.5224183)
Monaragala,Tanamalwila,"Kalyani Communication, Kithulkote, Thanamalvila",Kalyani Communication,POINT (80.2127198 6.9513758)
Monaragala,Tanamalwila,"Sugeewa Communication, Main Street, Thanamalwila",Sugeewa Communication,POINT (79.913777 7.0523229)
Monaragala,Wellawaya,"Wasantha Digital Studio, No.52 Warunagama, Wellawaya",Wasantha Digital Studio,POINT (81.13415999999999 6.733776)
Monaragala,Wellawaya,"Sena Clock Technician & Video Centre, No.09,Haputhale Road,Wellawaya",Sena Clock Technician & Video Centre,POINT (80.87201639999999 6.8925034)
Monaragala,Wellawaya,"Dickwella Electricals, No.22 Haputhale Rd, Wellawaya",Dickwella Electricals,POINT (81.1013342 6.7319956)
Monaragala,Wellawaya,"Sakura Communication And Book Shop, No.55 Monaragala Rd, Wellawaya",Sakura Communication And Book Shop,POINT (81.10136989999999 6.7318074)
Monaragala,Wellawaya,"Parami Book shop & Communication, 3 Mile Post,Anapallama, Wellawaya",Parami Book shop & Communication,POINT (81.10238559999999 6.730899399999999)
Monaragala,Wellawaya,"Dakshina Communication And Phone Shop, No.18 Haputhale Road, Wellawaya",Dakshina Communication And Phone Shop,POINT (81.10157479999999 6.7320236)
Monaragala,Wellawaya,"Suhada Book Shop, Tissa Rd, Wellawaya",Suhada Book Shop,POINT (81.10238559999999 6.730899399999999)
Monaragala,Wellawaya,"W A S Communication, Haputale Road, Wellawaya",W A S Communication,POINT (81.10136989999999 6.7318074)
Monaragala,Wellawaya,"AHANGAMA COMMUNICATION, THISSA ROAD, WELLAWAYA",AHANGAMA COMMUNICATION,POINT (80.36236319999999 5.9740778)
Monaragala,Wellawaya,"Denu Video Center, No.04 Bus Stand, Wellawaya, Wellawaya",Denu Video Center,POINT (81.1022814 6.7296955)
Mulathiv,Mulathiv,"ROYAL PHONE SHOP, MULLAI ROAD, VISUVAMADU JUNCTION, VISUVAMADU, MULLAITHIVU",ROYAL PHONE SHOP,POINT (79.8406114 7.2112395)
Mulathiv,Mulathiv,"NIMALAN 3 PHONE SHOP, BEACH ROAD MULATHIVE",NIMALAN 3 PHONE SHOP,POINT (80.81591259999999 9.268268300000001)
Mulathiv,Mulathiv,"ROYAL NET CAFE, MAIN STREET,  MULLATIVE TOWNMULLATIVE",ROYAL NET CAFE,POINT (79.8663347 6.8735921)
Mulathiv,Mulathiv,"POTHIKAI BOOK SHOP, MULLATIVU ROAD, PUTHUKUDIYIRUPPU, MULLATIVU",POTHIKAI BOOK SHOP,POINT (80.6952493 9.314057199999999)
Mulathiv,Mulathiv,"NIMALAN ELECTRONIC CENTRE, BEACH ROAD, MULLATIVU, MULLATIVU",NIMALAN ELECTRONIC CENTRE,POINT (80.81591259999999 9.268268300000001)
Nuwara eliya,Bogawantalawa,"Maskeliya Stores, No.73 Main Street, Bogawanthalawa",Maskeliya Stores,POINT (80.67851449999999 6.7958786)
Nuwara eliya,Bogawantalawa,"Vinoth, No.129 Main Street, Bogawanthalawa",Vinoth,POINT (80.67568969999999 6.7972519)
Nuwara eliya,Ginigathhena,"Lotus Communication, No.64 Kandy Road, Ginigathhena",Lotus Communication,POINT (80.60556029999999 7.2349015)
Nuwara eliya,Hatton,"Telesta Communication, No.39d Danbar Road, Hatton",Telesta Communication,POINT (80.5973211 6.889699999999999)
Nuwara eliya,Hatton,"Royal Grocery, No.277 Fruit Hill, Hatton",Royal Grocery,POINT (79.90124800000001 6.9370999)
Nuwara eliya,Hatton,"S.R .Mobile, # 14, Bus Stand, Hatton",S.R .Mobile,POINT (80.598744 6.889212199999999)
Nuwara eliya,Hatton,"Ambagaspitiya Stores, Bellton Wijayabahukanda, Hatton",Ambagaspitiya Stores,POINT (80.63001229999999 7.0086098)
Nuwara eliya,Hatton,"Raasi Jewellers, No.66 Side Street, Hatton",Raasi Jewellers,POINT (80.59823779999999 6.889561199999999)
Nuwara eliya,Hatton,"Turbo Communication, Green Park Complex, * A , Danbar Rd, Hatton",Turbo Communication,POINT (80.59751100000001 6.888393499999999)
Nuwara eliya,Hatton,"Sumihiri Tea Stores, No.25 Bus Stand, Hatton",Sumihiri Tea Stores,POINT (80.65877620000001 6.938359300000001)
Nuwara eliya,Dikoya,"SUPRAMANIYAM STORES, No:09,INGASDRY,DICKOYA",SUPRAMANIYAM STORES,POINT (80.60393719999999 6.8734318)
Nuwara eliya,Kotagala,"A.B.C.Communication, No.143 Main Street, Kotagala",A.B.C.Communication,POINT (80.60883219999999 6.925175299999999)
Nuwara eliya,Labukele,"Malshan Stores, Kondagala, Labukele",Malshan Stores,POINT (80.7137479 7.0289471)
Nuwara eliya,Lindula,"SRI COMMUNICATION, FARMESTON JUNCTION, THALAWAKELE, Lindula",SRI COMMUNICATION,POINT (80.66207759999999 6.9381664)
Nuwara eliya,Norwood,"NEW SARASWATHY STORES, No;56 MAIN STREET, NoRWOOD",NEW SARASWATHY STORES,POINT (80.614035 6.836124799999999)
Nuwara eliya,Norwood,"Vigna Stores, Bogawanthalawa Road Venture, Norwood",Vigna Stores,POINT (79.5355781 17.9907202)
Nuwara eliya,Norwood,"PULIYAWATTA COMMUNICATION, 02,MAIN ST, NoRWOOD",PULIYAWATTA COMMUNICATION,POINT (80.6418346 6.8164818)
Nuwara eliya,Nuwara eliya,"PRABA JEWELS, 50/4,LAWSON STREET,NUWARA-ELIYA",PRABA JEWELS,POINT (80.7663659 6.9734636)
Nuwara eliya,Nuwara eliya,"A.G.C FANCY & COMMUNICATION, #7,BUS STAND, NUWARA ELIYA",A.G.C FANCY & COMMUNICATION,POINT (80.7654193 6.9760864)
Nuwara eliya,Nuwara eliya,"SHALIKA COMMUNICATION, 11/1,NEW BAZAAR STREET, NUWARA ELIYA",SHALIKA COMMUNICATION,POINT (80.7670141 6.9734102)
Nuwara eliya,Nuwara eliya,"AYESHA, NO:152,BUS STANDROAD,MASKELIYA",AYESHA,POINT (72.6914034 22.9416865)
Nuwara eliya,Nuwara eliya,"Udabage Stores, Udabage, Lakshapana",Udabage Stores,POINT (80.4839743 6.9262012)
Nuwara eliya,Maskeliya,"K.T.S, No:14, 7TH STREET, MASKELIYA",K.T.S,POINT (79.86386159999999 6.9198013)
Nuwara eliya,Padiyapelella,"Senaka Communication, No.29 Ragala Road, Padiyapelella",Senaka Communication,POINT (79.8533577 6.921549400000001)
Nuwara eliya,Udapussallawa,"Prasadi Communication Cd House, No.04 Post Office Road, Uda Pussellawa",Prasadi Communication Cd House,POINT (80.8595787 7.008048)
Nuwara eliya,Udapussallawa,"DISNEY , MAIN STREET, UDAPUSSELLAWA",DISNEY ,POINT (80.9041864 6.9998995)
Nuwara eliya,Walapane,"NILUSHINI COMMUNICATION, No.8,BUS STAND, WALAPANE",NILUSHINI COMMUNICATION,POINT (80.8618649 7.0949567)
Polonnaruwa,Hingurakgoda,"Swiss Furnitures, Corp City, Hingurakgoda",Swiss Furnitures,POINT (80.9549146 8.041954499999999)
Polonnaruwa,Hingurakgoda,"Shanika Communication, No.52, Hingurakgoda",Shanika Communication,POINT (80.95115699999999 8.040414699999999)
Polonnaruwa,Kaduruwela,"Cycle Bazar, Batticaloa Road, Kaduruwela",Cycle Bazar,POINT (80.62481819999999 7.4712015)
Polonnaruwa,Kaduruwela,"CEYLON MAX ENTERPRISES, HIJRA MAWARHA KADURUWELA",CEYLON MAX ENTERPRISES,POINT (79.8763354 6.9060586)
Polonnaruwa,Kaduruwela,"Royal Communication, No.1 Near The Bus Stand, Kaduruwela",Royal Communication,POINT (81.0339539 7.9287528)
Polonnaruwa,Kaduruwela,"Satco Lanka Pvt Ltd, Sowmil Junction, Kaduruwela",Satco Lanka Pvt Ltd,POINT (81.03484539999999 7.928422799999999)
Polonnaruwa,Polonnaruwa,"Chandrika Stores, Weera Place, Polonnaruwa",Chandrika Stores,POINT (81.01590499999999 7.919852199999999)
Polonnaruwa,Polonnaruwa,"THALPOTHA STORES, THALPOTHA, POLONNARUWA",THALPOTHA STORES,POINT (81.03711369999999 8.036202700000002)
Polonnaruwa,Polonnaruwa,"Priyanka Stores, New Town, Polonnaruwa",Priyanka Stores,POINT (81.0025107 7.9138917)
Polonnaruwa,Polonnaruwa,"RATHNA STORES, 54,ABAYAPURA,PULASTHIGAMA, POLONNARUWA",RATHNA STORES,POINT (81.07761379999999 8.0418939)
Polonnaruwa,Polonnaruwa,"Tele Communication, Bus Stand, Kaduruwela",Tele Communication,POINT (81.03319719999999 7.9290627)
Polonnaruwa,Polonnaruwa,"A,  MOBILE COMMUNICATION, N0, 05 POLONNARUWA ROAD , MINNERIYA",A,POINT (81.03375 7.929326)
Polonnaruwa,Polonnaruwa,"Ransiri Communication And Book Shop, Bendiwewa, Polonnaruwa",Ransiri Communication And Book Shop,POINT (81.01814089999999 7.940624499999998)
Puttalm,Anamaduwa,"Jaliya Communication, No.42 Puttalam Road, Anamaduwa",Jaliya Communication,POINT (80.0101451 7.8786038)
Puttalm,Anamaduwa,"Rantharu Communication, Welewewa, Nawagattegama",Rantharu Communication,POINT (79.8529284 7.341788600000001)
Puttalm,Dankotuwa,"Sakura Communication, No.22 Nattandiya Road, Dankotuwa",Sakura Communication,POINT (79.8825494 7.298017699999999)
Puttalm,Dankotuwa,"Sisila Mobile Centre, No.02 Super Market, Dankotuwa",Sisila Mobile Centre,POINT (79.88367099999999 7.2975477)
Puttalm,Dankotuwa,"Sanic Teleshop, No.40b Kurunegala Road, Dankotuwa",Sanic Teleshop,POINT (80.3659955 7.487804799999998)
Puttalm,Kalpitiya,"RAMZANI, MAIN STREET, KALPITIYA",RAMZANI,POINT (79.76545209999999 8.236273900000002)
Puttalm,Marawila,"SENLANKA COMMUNICATION, COLOMBO ROAD,HATTINIYA,THALWILA, MARAWILA",SENLANKA COMMUNICATION,POINT (80.04046939999999 6.2961348)
Puttalm,Mundal,"Talk Net, Puttalam Road, Mundel",Talk Net,POINT (79.82545789999999 7.8057404)
Puttalm,Nattandiya,"Kasun Textiles , 40, Marawila Rd,  Nattandiya, Nattandiya",Kasun Textiles ,POINT (79.8647836 7.410963899999999)
Puttalm,Palavi,"LAKMINI BOOK SHOP, COLOMBO ROAD, PALAVIYA",LAKMINI BOOK SHOP,POINT (79.8607868 6.9269167)
Puttalm,Puttalam,"S.T.Mobile, No.39 Kurunegala Road, Puttalam",S.T.Mobile,POINT (80.4982256 8.7542033)
Puttalm,Puttalam,"PCI COM, KARATHIV, PUTTLAM",PCI COM,POINT (79.8356704 8.030320099999999)
Puttalm,Puttalam,"P V M Electronics, No.17 K.K.Street, Puttalam",P V M Electronics,POINT (79.82969199999999 8.031699)
Puttalm,Puttalam,"A And A Communication, No.01 Shopping Complex, Puttalam",A And A Communication,POINT (79.82900169999999 8.0301837)
Puttalm,Puttalam,"NEO COMPUTERS, KALPITI ROAD, PALAKUDA, THALAWILA",NEO COMPUTERS,POINT (79.87298989999999 7.4135513)
Puttalm,Puttalam,"M K Communication, Kalpitiya Road, Mampuriya",M K Communication,POINT (79.7657207 8.2358783)
Puttalm,Puttalam,"Sanka Tele Shop, New Town, Madampe",Sanka Tele Shop,POINT (79.84078769999999 7.496739899999999)
Puttalm,Puttalam,"S & S Communication, KALPITTIYA ROAD, NURAICHCHOLAI, PUTTALAM",S & S Communication,POINT (79.89795909999999 6.795795)
Puttalm,Puttalam,"David Video Center, No.53 Hijra Mawatha Old Road, Madampe",David Video Center,POINT (79.83010999999999 7.479801900000001)
Puttalm,Puttalam,"SAMAN ELECTRONICS, CHILAW RD, PUTTLAM., Pallama",SAMAN ELECTRONICS,POINT (79.92148180000001 7.6867732)
Puttalm,Puttalam,"JOY DVD CENTER, N0.03, UC YARD, PUTTALAM",JOY DVD CENTER,POINT (79.80490449999999 7.560926599999999)
Rathnapura,Balangoda,"Dammi Communication, No.5a Bus Stand, Balangoda",Dammi Communication,POINT (80.70090549999999 6.6491908)
Rathnapura,Balangoda,"Samanala Book Shop, Pinnawala, Balangoda",Samanala Book Shop,POINT (80.6852835 6.706271300000001)
Rathnapura,Balangoda,"Reehas Fancy And Communication, Matale Road, Palapathwela",Reehas Fancy And Communication,POINT (80.6257296 7.530817399999999)
Rathnapura,Balangoda,"Pubudu Book Shop, No.62/1 Old Road Balangoda, Balangoda",Pubudu Book Shop,POINT (80.6977035 6.6491623)
Rathnapura,Balangoda,"LALITH COMMUNICATION, WELIGAPOLA, BALANGODA",LALITH COMMUNICATION,POINT (80.40943539999999 6.6816996)
Rathnapura,Belihuloya,"DOY COM COMPUTER CENTER, UNIVERSITY ROAD, PAMBAHINNA",DOY COM COMPUTER CENTER,POINT (80.78619599999999 6.716045299999999)
Rathnapura,Belihuloya,"Prasanka Communication, Galagama, Belihuloya",Prasanka Communication,POINT (80.7721971 6.7201261)
Rathnapura,Embilipitiya,"U.S.B. COM., MILE POST PANAMURA RD EMBILIPITIYA",U.S.B. COM.,POINT (80.81639989999999 6.336068)
Rathnapura,Embilipitiya,"Mal Communication, New Town, Embilipitiya",Mal Communication,POINT (80.84869499999999 6.3261229)
Rathnapura,Embilipitiya,"Bandaranayake Stores, Hospital Road New Town, Embilipitiya",Bandaranayake Stores,POINT (80.8437806 6.325821899999999)
Rathnapura,Embilipitiya,"Damith Stores, 75, 100 Mile Post, Weeraketiya Road, Embilipitiya",Damith Stores,POINT (80.87983439999999 6.297336899999999)
Rathnapura,Embilipitiya,"Cham Communication, Moraketiya Road, Embilipitiya",Cham Communication,POINT (80.19130699999999 6.934165399999999)
Rathnapura,Embilipitiya,"Silver Line Graphics And Communication, 99 Junction, Embilipitiya",Silver Line Graphics And Communication,POINT (80.8256737 6.3714067)
Rathnapura,Embilipitiya,"Sanjaya Electronic Emilipitiya, Opposite Bus Stand, Embilipityya, Embilipitiya",Sanjaya Electronic Emilipitiya,POINT (80.856042 6.33215)
Rathnapura,Embilipitiya,"Smart Mobil, No.28, Main St, Pallegama, Embilipitiya",Smart Mobil,POINT (80.8547083 6.3323242)
Rathnapura,Embilipitiya,"BANDARANAYAKA STORES., 124 MODARAWANA EMBILIPITIYA",BANDARANAYAKA STORES.,POINT (80.8437806 6.325821899999999)
Rathnapura,Godakawela,"SAVIRA COLLECTION, 60/C,MAIN ST, GODAKAWELA",SAVIRA COLLECTION,POINT (80.65778399999999 6.501995)
Rathnapura,Godakawela,"SIHINA COM., MAIN STREET GODAKAWELA",SIHINA COM.,POINT (80.6508413 6.5045383)
Rathnapura,Kahawatta,"FLOWER SHOP, MAIN STREET, KAHAWATTA",FLOWER SHOP,POINT (80.61032809999999 6.6060075)
Rathnapura,Kalawana,"Phone House Communication, No.10 Manana, Kalawana",Phone House Communication,POINT (80.3967583 6.5318206)
Rathnapura,Kalawana,"U Tec Communication, Pothupitiya, Kalawan",U Tec Communication,POINT (79.90139189999999 6.796456500000001)
Rathnapura,Kuruwita,"SEUWANDI COM., MAIN STREET NERA THE POLICE KURUWITA, na",SEUWANDI COM.,POINT (80.364712 6.7788391)
Rathnapura,Kuruwita,"NEW ISURU COM, PARADISE KURUWITA, na, Paradise",NEW ISURU COM,POINT (80.36977739999999 6.758481)
Rathnapura,Kuruwita,"Paradise Communication, Paradise Junction, Kuruwita",Paradise Communication,POINT (80.37124159999999 6.7652569)
Rathnapura,Kuruwita,"SHOI COM, HIGGASHENA KURUWITA., na",SHOI COM,POINT (80.1549965 7.198353300000001)
Rathnapura,Kuruwita,"SILVA STORES & COMM, HIGGASHENA, KURUWITA",SILVA STORES & COMM,POINT (80.36854989999999 6.7584236)
Rathnapura,Kuruwita,"Rasan Cellular, Colombo Road, Kuruwita",Rasan Cellular,POINT (80.3682879 6.773597400000001)
Rathnapura,Kuruwita,"S.J.Electronics, No.22 Arathna Road, Kuruvita",S.J.Electronics,POINT (80.3668038 6.777232199999999)
Rathnapura,Kuruwita,"High Communication, No.63/A Colombo Road, Kuruwita",High Communication,POINT (80.3646646 6.7783383)
Rathnapura,Nivithigala,"NEW WIN MIN COM, KALAWANA ROAD, NIVITHIGALA",NEW WIN MIN COM,POINT (79.8447204 6.9356673)
Rathnapura,Nivithigala,"Maya Communication, No.12 Kalawana Road, Nivithigala",Maya Communication,POINT (80.457745 6.596132799999999)
Rathnapura,Opanayaka,"NILMINI COMMUNICATION, UDAWELLA, OPANAYAKA",NILMINI COMMUNICATION,POINT (80.5448638 5.9490067)
Rathnapura,Opanayaka,"Chamil Communication, No.04a Main Street, Opanayake",Chamil Communication,POINT (80.6209164 6.608792999999999)
Rathnapura,Opanayaka,"Anuttara Communication, No.12/A Balangoda Road, Opanayake",Anuttara Communication,POINT (80.41144559999999 6.68259)
Rathnapura,Parakaduwa,"Eshantha Communication, Narada Vidyalaya Junction, Parakaduwa",Eshantha Communication,POINT (80.3115564 6.8323608)
Rathnapura,Parakaduwa,"VILLAGE COMMUNICATION, DIGOWA ROAD, PARAKADUWA",VILLAGE COMMUNICATION,POINT (80.3092111 6.828983099999999)
Rathnapura,Pelmadulla,"G. COM COMMUNICATION, VIDYALA MAWATHA, PELMADULLA",G. COM COMMUNICATION,POINT (80.5388389 6.6257684)
Rathnapura,Pelmadulla,"Chethana Cellular, No.79/V Main Street, Pelmadulla",Chethana Cellular,POINT (80.401527 6.6827014)
Rathnapura,Pelmadulla,"EYE COMMUNICATION, BUS STAND,PELMADULLA",EYE COMMUNICATION,POINT (78.1411485 11.6703026)
Rathnapura,Pelmadulla,"JANAKA STORES, PATHAKADA, PELMADULLA",JANAKA STORES,POINT (79.9528376 6.8482055)
Rathnapura,Rathnapura,"Risandu Book Shop, Kotamulla Junction, Kotamulla",Risandu Book Shop,POINT (80.3822668 6.6641761)
Rathnapura,Rathnapura,"KSC COMMUNICATION, PALAWELA,UDA NIRIELLA, RATHNAPURA",KSC COMMUNICATION,POINT (80.35198079999999 6.647594499999999)
Rathnapura,Rathnapura,"Fareenas Communication, Kalawana Road, Karawita",Fareenas Communication,POINT (80.4158992 6.5883734)
Rathnapura,Rathnapura,"Mejestick Communication, Kalawana Road Karawita, Uda Karavita",Mejestick Communication,POINT (80.41700370000001 6.5844951)
Rathnapura,Rathnapura,"Smart Link Communication, Ambalanwatta, Atakalanpanna",Smart Link Communication,POINT (79.8533577 6.921549400000001)
Rathnapura,Rathnapura,"MANJULA VIDEO, BO TREE JUNCTION, ENDANA",MANJULA VIDEO,POINT (79.8771229 6.892484)
Rathnapura,Rathnapura,"Sanduni Book Shop, Dammulla, Karandana",Sanduni Book Shop,POINT (80.22005639999999 6.7752753)
Rathnapura,Rathnapura,"Gayan Stores, Inner Circullar Road, Ratnapura",Gayan Stores,POINT (80.2350909 6.8907403)
Rathnapura,Rathnapura,"E NET COMMINICATION, POTHGULWIHARA MAWATHA RATNAPURA",E NET COMMINICATION,POINT (80.3741067 6.6806224)
Rathnapura,Rathnapura,"Cellnet Cellular, No.47 New Bus Stand, Ratnapura",Cellnet Cellular,POINT (80.081289 6.9086468)
Rathnapura,Rathnapura,"Starlink Communication, No.45 Pothgul Vihara Mawatha, Ratnapura",Starlink Communication,POINT (80.39670249999999 6.6787658)
Rathnapura,Rathnapura,"R AND R ENTERPRISES, MALANGAMA  HIDELLANA  RATNAPURA, na",R AND R ENTERPRISES,POINT (80.3843255 6.739143299999999)
Rathnapura,Rathnapura,"B.K.Grocery, Good Shed Road, Ratnapura",B.K.Grocery,POINT (80.0106158 6.4412517)
Rathnapura,Rathnapura,"R N LUCKY STORES, 214/4,HIDELLANA,RATHNAPURA",R N LUCKY STORES,POINT (79.8664957 6.8513942)
Rathnapura,Rathnapura,"Deepani Communication, No.19 Hospital Road, Ratnapura",Deepani Communication,POINT (80.3988985 6.6807449)
Rathnapura,Rathnapura,"S P Mobile, No.5b Bus Stand Road, Ratnapura",S P Mobile,POINT (80.39935869999999 6.6832185)
Rathnapura,Rathnapura,"D.T.CELLULAR, BANDARANAYAKE ROAD, RATHNAPURA",D.T.CELLULAR,POINT (80.3999814 6.680189599999999)
Rathnapura,Rathnapura,"Darshi Communication, No.387 Good Shed Road, Ratnapura",Darshi Communication,POINT (80.4023335 6.6824819)
Rathnapura,Rathnapura,"Asoka Record Bar, No.383 Central Bus Stand, Ratnapura",Asoka Record Bar,POINT (80.40239199999999 6.682477)
Rathnapura,Rathnapura,"Nest Enterprises, No.11 Super Market, Ratnapura",Nest Enterprises,POINT (80.4000727 6.6798701)
Rathnapura,Rathnapura,"C.R.CELL, NO.29 BUS STAND ROAD RATHNAPURA, na",C.R.CELL,POINT (80.4016577 6.682807599999999)
Rathnapura,Rathnapura,"Nawoda Cellular, No.321 Goodshed Road, Rathnapura",Nawoda Cellular,POINT (80.401353 6.6825879)
Rathnapura,Rathnapura,"Sara Mobile Book Shop And Net Cafe, Colombo Road, Ratnapura",Sara Mobile Book Shop And Net Cafe,POINT (80.38425170000001 6.710688299999999)
Rathnapura,Rathnapura,"Super Politon, No.107 Bandaranayake Mawatha, Ratnapura",Super Politon,POINT (80.4005456 6.680571)
Rathnapura,Rathnapura,"Phone Net, No.202/A Main Street, Ratnapura",Phone Net,POINT (80.402174 6.682856)
Rathnapura,Rathnapura,"W.E. COM., GOOD SHED RD RATNAPURA., na",W.E. COM.,POINT (80.4028692 6.6825996)
Rathnapura,Rathnapura,"Indika Stationery, Malwala Juction, Ratnapura",Indika Stationery,POINT (80.4356549 6.7070126)
Rathnapura,Rathnapura,"Adithya Celluler, New Bus Stand Inner Circuler Road, Ratnapura",Adithya Celluler,POINT (80.401353 6.6825879)
Rathnapura,Rathnapura,"AMARA COMMUNICATION, NEW BUS STAND,  RATHNAPURA",AMARA COMMUNICATION,POINT (80.401353 6.6825879)
Rathnapura,Rathnapura,"ROYAL MOBILE, MAIN STREET, RATNAPURA",ROYAL MOBILE,POINT (80.4040389 6.6796729)
Rathnapura,Rathnapura,"New Tec Vishion, Induruwa Junction, Gileemale",New Tec Vishion,POINT (80.5187184 7.3889098)
Rathnapura,Rathnapura,"Giga Hut, No.143 Bandaranayaka Mawatha, Ratnapura",Giga Hut,POINT (80.39854199999999 6.6807037)
Rathnapura,Rathnapura,"Hansani Communication, In Front Of The Hospital, Gilimale",Hansani Communication,POINT (80.42670369999999 6.7519393)
Rathnapura,Rathnapura,"MAHANAMA PHARMACY, NO 03 MAIN STREET RATNAPURA., na",MAHANAMA PHARMACY,POINT (80.40274049999999 6.680484099999999)
Rathnapura,Rathnapura,"BUDDIKA PHARMECY & GROCERY., NO 24 BUS STAND ROAD RATNAPURA., na",BUDDIKA PHARMECY & GROCERY.,POINT (80.40170019999999 6.682587499999999)
Rathnapura,Rathnapura,"SUMITH STUDIO, 219, MAIN STREET, RATNAPURA",SUMITH STUDIO,POINT (80.40387819999999 6.6796226)
Rathnapura,Rathnapura,"Ruwan Salu, Welimaluwa, Lellopitiya",Ruwan Salu,POINT (80.46997189999999 6.664319799999999)
Rathnapura,Rathnapura,"DHAMMIKA ENTERTAINMENT, SANNASGAMA, LELLOPITIYA",DHAMMIKA ENTERTAINMENT,POINT (80.2652282 6.2824745)
Rathnapura,Rathnapura,"Seventh Video Home, Kudugalwatta, Rathnapura",Seventh Video Home,POINT (80.4017144 6.6839061)
Rathnapura,Rathnapura,"SH VIDEO, RADDELLA, KARANGODA, RATNAPURA",SH VIDEO,POINT (80.36428859999999 6.6776782)
Rathnapura,Rathnapura,"CHAMINDA COM., THANNAHENA GILIMALE RATNAPURA, na",CHAMINDA COM.,POINT (80.37784069999999 6.7550468)
Rathnapura,Rathnapura,"Tiny Communication, No.271 Batugedara, Ratnapura",Tiny Communication,POINT (80.4187369 6.6745844)
Rathnapura,Rathnapura,"Ruby Communication, Udanugepola, Gallella",Ruby Communication,POINT (76.8912318 11.0303115)
Rathnapura,Rathnapura,"Gampathi Grocery, Amunutenna Gallella, Ratnapura",Gampathi Grocery,POINT (80.3862901 6.7112932)
Rathnapura,Rathnapura,"Premasiri Communication, Ratnapura Road, Wewelwatta",Premasiri Communication,POINT (80.5556266 6.7055368)
Rathnapura,Rathnapura,"Dynamic Mobile, No.170 Main Street, Ratnapura",Dynamic Mobile,POINT (80.4045332 6.679462)
Rathnapura,Rathnapura,"Lakmine Cellular, No.08 Bus Stand, Ratnapura",Lakmine Cellular,POINT (80.4020321 6.6832984)
Rathnapura,Rathnapura,"Imashi Communication, Embilipitiya Road, Kolonna",Imashi Communication,POINT (80.6946404 6.399628300000001)
Rathnapura,Rathnapura,"Nimeshi Tex, Sooriyakanda, Buluthota",Nimeshi Tex,POINT (80.6358662 6.4384539)
Rathnapura,Rathnapura,"GIHAN COMMUNICATION, DELGASHANDIYA, OPANAYAKA",GIHAN COMMUNICATION,POINT (80.5388389 6.6257684)
Rathnapura,Rathnapura,"Udara Communication, Kadurugasara, Thunkama",Udara Communication,POINT (80.00408259999999 6.8415997)
Rathnapura,Rathnapura,"Weeragiei Stores, Pahalawatta Juncion Dspane Omalpe",Weeragiei Stores,POINT (80.69509239999999 5.986755899999999)
Rathnapura,Rakwana,"Ishara Electricals, Rambuka, Rakwana",Ishara Electricals,POINT (80.61175949999999 6.471957499999999)
Rathnapura,udawalawa,"Isuru Tharu Book Shop, Ret Junction, Udawalawa",Isuru Tharu Book Shop,POINT (80.10073989999999 6.8422803)
Rathnapura,udawalawa,"Gunasekara Hotel And Communication, Udawalawa Junction, Udawalawa",Gunasekara Hotel And Communication,POINT (80.7957854 6.4095928)
Rathnapura,udawalawa,"Gamini Tea Room : Udawalawa Junction, Thanamalwila Road Udawalawa Junction, Udawalawa",Gamini Tea Room : Udawalawa Junction,POINT (80.7948226 6.411655499999999)
Rathnapura,udawalawa,"ANUSHA STORES, KOLAMBAGE ARA, SANKAPALA",ANUSHA STORES,POINT (80.7621058 6.4362127)
Rathnapura,Yatiyanthota,"Bernard Book Shop, Yatiyanthota",Bernard Book Shop,POINT (80.2951509 7.0289294)
Trincomalee,Kantale,"Jayasekara Communication, No.21 Rajaela Road, Kantale, Kanthale",Jayasekara Communication,POINT (81.00862149999999 8.3550114)
Trincomalee,Kantale,"STUDIO KANTHI, MAIN ST, KANTHALE., Kanthale",STUDIO KANTHI,POINT (81.0059612 8.358786)
Trincomalee,Kantale,"Samanthika Book Shop, Main Street, Kanthale, Kanthale",Samanthika Book Shop,POINT (81.00826440000002 8.354577799999999)
Trincomalee,Kiliweddy,"THANA STUDIO, PARATHIPURAM, KILIWEDDY",THANA STUDIO,POINT (80.0628334 7.120407399999999)
Trincomalee,Kinniya,"Surfa Communication, Main Street, Kinniya, Kinniya",Surfa Communication,POINT (81.18535919999999 8.5019331)
Trincomalee,Kinniya,"A I M Traders, Main Street, Kinniya, Kinniya",A I M Traders,POINT (79.8496545 6.9371421)
Trincomalee,Kinniya,"Gaffar Cellular Centre, Main Street, Kinniya 4, Kinniya 4",Gaffar Cellular Centre,POINT (81.1810005 8.5025067)
Trincomalee,Kinniya,"Nasmeer Cellular Center, Kuttikarachi, Kinniya 5, Kuttikarachchi",Nasmeer Cellular Center,POINT (81.18378299999999 8.502393)
Trincomalee,Kinniya,"Athil Communication And Stationary, Kachchakudithivu Junction, Kinniya 5, Kachchakodithieve",Athil Communication And Stationary,POINT (81.17215809999999 8.4965832)
Trincomalee,Kinniya,"SIDDEK MULTI SHOP, KAKKAMUNA - 06, KINNIYA, Kakamunai",SIDDEK MULTI SHOP,POINT (81.17286989999999 8.472826599999999)
Trincomalee,Kinniya,"Buauty STORES, Kuttikarachi, Kinniya 05, Kinniya, Kuttikarachchi",Buauty STORES,POINT (81.18827159999999 8.5017157)
Trincomalee,Kinniya,"V M S Bicycle Center, No 50, MAIN STREET,  KINNIYA",V M S Bicycle Center,POINT (81.18014049999999 8.501442599999999)
Trincomalee,Mutur,"Colombo Traders, Main Street, Mutur, Main Street",Colombo Traders,POINT (79.86347499999999 6.941223)
Trincomalee,Mutur,"MAIN COMMUNICATION, MAIN STREET, MUTUR, Main Street",MAIN COMMUNICATION,POINT (81.1812473 8.502409799999999)
Trincomalee,Mutur,"Mobile Expert, MAIN ST, MUTUR1, Main Street",Mobile Expert,POINT (79.85236309999999 6.9381413)
Trincomalee,Mutur,"Naja Phone Shop, Main Street, Mutur, Opposit Pradeshiya Saba",Naja Phone Shop,POINT (79.8513354 6.937551)
Trincomalee,Serunuwara,"Hasanka Communication, Serunuwara, Hospitel Road, Alioluwa",Hasanka Communication,POINT (81.30045799999999 8.3252335)
Trincomalee,Thoppur,"F A S Computer Center, Selvanager, Thoppur",F A S Computer Center,POINT (79.73682839999999 12.8173322)
Trincomalee,Trincomalee,"STAR MOBILE COMMUNICATION, 223/A,CENTRAL RD, TRINCOMALEE., Trincomalee",STAR MOBILE COMMUNICATION,POINT (81.2275669 8.5808654)
Trincomalee,Trincomalee,"ZINU MART, 207,DOCKYARD ROAD, TRINCOMALEE, Trincomalee",ZINU MART,POINT (81.23586019999999 8.5620458)
Trincomalee,Trincomalee,"Samathi Pillaiar Centre, No.280 Main Street, Trincomalee, Main Street",Samathi Pillaiar Centre,POINT (79.85363149999999 6.9386055)
Trincomalee,Trincomalee,"ANJEL COMMUNICATION, A/PURA JUNCTION,VAVUNIYA ROAD, TRINCOMALEE, A/pura Juntion",ANJEL COMMUNICATION,POINT (81.22819199999999 8.5769371)
Trincomalee,Trincomalee,"Mizpeh Communication And Phone Shop, No 130E, Ananthapuri Juntion, Nilaveli Road, Trincomalee",Mizpeh Communication And Phone Shop,POINT (81.2163831 8.605377799999999)
Trincomalee,Trincomalee,"Anchanayer Farmin Center, 130,Central Road, TRINCOMALEE, Opposite Hero Honda",Anchanayer Farmin Center,POINT (81.2327019 8.5785132)
Trincomalee,Trincomalee,"S M Communication, Senanayaka Mawathaa, Kanthale, Senanayaka Mawatha",S M Communication,POINT (79.8533577 6.921549400000001)
Trincomalee,Trincomalee,"S S enterprises, No 216, Kandy Road, Trincomalee, TRINCOMALEE, Abayapura",S S enterprises,POINT (79.91742699999999 6.8556866)
Vauniya,Vavuniya,"Global Communication, New Bus Stand Complex, Vavuniya",Global Communication,POINT (80.49783699999999 8.753973)
Vauniya,Vavuniya,"Vision Stationary and Mobile , 1st Cross St, Vauniya",Vision Stationary and Mobile ,POINT (79.8510833 6.934644700000001)
